record_type,area_code,sec,sub,icao,runway_id,rwy_length_ft,rwy_mag_brg_tenths,lat_raw,lon_raw,rwy_grad_pct100,lthr_elev_ft,dthr_ft,tch_raw,rwy_width_ft,loc_mls_gls_ident,loc_cat_class,primary_1_123,cont#2_appl_code,cont#2_appl_label,cont#2_1_123
S,AFR,P,G,DAOI,RW07,04921,0680,N36123476,E001192383,,00463,0000,40,098,,,SAFRP DAOIDAGRW07    1049210680 N36123476E001192383               00463000040098      0000                                 ,S,Simulation application continuation,SAFRP DAOIDAGRW07    2S                            06900Y        L00463                                                    
S,AFR,P,G,DAOI,RW25,04921,2480,N36125417,E001201878,,00466,0000,40,098,,,SAFRP DAOIDAGRW25    1049212480 N36125417E001201878               00466000040098      0000                                 ,S,Simulation application continuation,SAFRP DAOIDAGRW25    2S                            24900Y        L00466                                                    
S,AFR,P,G,DAUH,RW18R,05906,1820,N31403180,E006082630,,00469,0000,50,148,,,SAFRP DAUHDAGRW18R   1059061820 N31403180E006082630               00469000050148      0328                                 ,S,Simulation application continuation,SAFRP DAUHDAGRW18R   2S                            18400Y        L00469                                                    
S,AFR,P,G,DAUH,RW36L,05906,0020,N31393347,E006082113,,00459,0000,50,148,HM,,SAFRP DAUHDAGRW36L   1059060020 N31393347E006082113               00459000050148 HM   0000                                 ,S,Simulation application continuation,SAFRP DAUHDAGRW36L   2S                            00400Y        L00459                                                    
S,AFR,P,G,FBJW,RW08,05495,0820,S24361573,E024410252,,03905,0000,40,082,,,SAFRP FBJWFBGRW08    1054950820 S24361573E024410252               03905000040082      0492                                 ,S,Simulation application continuation,SAFRP FBJWFBGRW08    2S                            06500Y        L03905                                                    
S,AFR,P,G,FBJW,RW26,05495,2620,S24355271,E024415679,,03899,0000,40,082,,,SAFRP FBJWFBGRW26    1054952620 S24355271E024415679               03899000040082      0492                                 ,S,Simulation application continuation,SAFRP FBJWFBGRW26    2S                            24500Y        L03899                                                    
S,AFR,P,G,FBOR,RW07,05495,0730,S21161086,E025184516,,03106,0000,40,098,,,SAFRP FBORFBGRW07    1054950730 S21161086E025184516               03106000040098      0492                                 ,S,Simulation application continuation,SAFRP FBORFBGRW07    2S                            06100Y        L03106                                                    
S,AFR,P,G,FBOR,RW25,05495,2530,S21154441,E025193608,,03114,0000,40,098,,,SAFRP FBORFBGRW25    1054952530 S21154441E025193608               03114000040098      0492                                 ,S,Simulation application continuation,SAFRP FBORFBGRW25    2S                            24100Y        L03114                                                    
S,AFR,P,G,FMNR,RW14,04265,1430,S15260226,E049410444,,00014,0000,50,098,,,SAFRP FMNRFMGRW14    1042651430 S15260226E049410444               00014000050098      0000                                 ,S,Simulation application continuation,SAFRP FMNRFMGRW14    2S                            13056Y        L00014                                                    
S,AFR,P,G,FMNR,RW32,04265,3230,S15262969,E049413748,,00013,0000,50,098,,,SAFRP FMNRFMGRW32    1042653230 S15262969E049413748               00013000050098      0000                                 ,S,Simulation application continuation,SAFRP FMNRFMGRW32    2S                            31056Y        L00013                                                    
S,AFR,P,G,FOGO,RW03,05906,0270,N01320877,E011344104,,02143,0000,40,098,,,SAFRP FOGOFOGRW03    1059060270 N01320877E011344104               02143000040098      0000                                 ,S,Simulation application continuation,SAFRP FOGOFOGRW03    2S                            02700N        L02143                                                    
S,AFR,P,G,FOGO,RW21,05906,2070,N01330203,E011350524,,02165,0000,40,098,,,SAFRP FOGOFOGRW21    1059062070 N01330203E011350524               02165000040098      0000                                 ,S,Simulation application continuation,SAFRP FOGOFOGRW21    2S                            20700N        L02165                                                    
S,AFR,P,G,FPPR,RW18,05741,1830,N01401111,E007243967,,00571,0000,40,098,,,SAFRP FPPRFPGRW18    1057411830 N01401111E007243967               00571000040098      0000                                 ,S,Simulation application continuation,SAFRP FPPRFPGRW18    2S                            18000Y        L00571                                                    
S,AFR,P,G,FPPR,RW36,05741,0030,N01392113,E007243971,,00581,0705,40,098,,,SAFRP FPPRFPGRW36    1057410030 N01392113E007243971               00581070540098      0492                                 ,S,Simulation application continuation,SAFRP FPPRFPGRW36    2S                            36000Y        L00581                                                    
S,AFR,P,G,FQFN,RW02,05906,0200,S24540358,E033451059,,00306,0000,50,148,,,SAFRP FQFNFQGRW02    1059060200 S24540358E033451059               00306000050148      0000                                 ,S,Simulation application continuation,SAFRP FQFNFQGRW02    2S                            00094Y        L00306                                                    
S,AFR,P,G,FQFN,RW20,05906,2000,S24530509,E033451164,,00298,0000,50,148,,,SAFRP FQFNFQGRW20    1059062000 S24530509E033451164               00298000050148      0000                                 ,S,Simulation application continuation,SAFRP FQFNFQGRW20    2S                            18094Y        L00298                                                    
S,AFR,P,G,HEAX,RW14L,11155,1380,N30554932,E029410631,,00177,0000,50,148,,,SAFRP HEAXHEGRW14L   1111551380 N30554932E029410631               00177000050148      0000                                 ,S,Simulation application continuation,SAFRP HEAXHEGRW14L   2S                            14285Y        L00177                                                    
S,AFR,P,G,HEAX,RW14R,11155,1380,N30554478,E029405941,,00172,0000,50,148,,,SAFRP HEAXHEGRW14R   1111551380 N30554478E029405941               00172000050148      0000                                 ,S,Simulation application continuation,SAFRP HEAXHEGRW14R   2S                            14284Y        L00172                                                    
S,AFR,P,G,HEAX,RW32L,11155,3180,N30541679,E029421674,,00127,0000,50,148,,,SAFRP HEAXHEGRW32L   1111553180 N30541679E029421674               00127000050148      0000                                 ,S,Simulation application continuation,SAFRP HEAXHEGRW32L   2S                            32285Y        L00127                                                    
S,AFR,P,G,HEAX,RW32R,11155,3180,N30542131,E029422364,,00133,0000,51,148,IALX,,SAFRP HEAXHEGRW32R   1111553180 N30542131E029422364               00133000051148 IALX 0000                                 ,S,Simulation application continuation,SAFRP HEAXHEGRW32R   2S                            32286Y        L00133                                                    
S,AFR,P,G,HKKG,RW08,04216,0780,N00161308,E034465756,,05048,0000,40,075,,,SAFRP HKKGHKGRW08    1042160780 N00161308E034465756               05048000040075      0000                                 ,S,Simulation application continuation,SAFRP HKKGHKGRW08    2S                            07900Y        L05048                                                    
S,AFR,P,G,HKKG,RW26,04216,2580,N00162107,E034473842,,05015,0000,40,075,,,SAFRP HKKGHKGRW26    1042162580 N00162107E034473842               05015000040075      0000                                 ,S,Simulation application continuation,SAFRP HKKGHKGRW26    2S                            25900Y        L05015                                                    
S,AFR,P,G,HKNL,RW03,04888,0290,S00040281,E037021828,,06253,0000,40,075,,,SAFRP HKNLHKGRW03    1048880290 S00040281E037021828               06253000040075      0000                                 ,S,Simulation application continuation,SAFRP HKNLHKGRW03    2S                            02900Y        A06253                                                    
S,AFR,P,G,HKNL,RW21,04888,2090,S00032054,E037024193,,06253,0000,40,075,,,SAFRP HKNLHKGRW21    1048882090 S00032054E037024193               06253000040075      0000                                 ,S,Simulation application continuation,SAFRP HKNLHKGRW21    2S                            20900Y        A06253                                                    
S,AFR,P,G,HLGS,RW13,11811,1300,N31040662,E016352017,,00266,0000,50,148,,,SAFRP HLGSHLGRW13    1118111300 N31040662E016352017               00266000050148      0984                                 ,S,Simulation application continuation,SAFRP HLGSHLGRW13    2S                            13200N        L00266                                                    
S,AFR,P,G,HLGS,RW18,11811,1780,N31043378,E016353774,,00258,0000,50,148,,,SAFRP HLGSHLGRW18    1118111780 N31043378E016353774               00258000050148      0984                                 ,S,Simulation application continuation,SAFRP HLGSHLGRW18    2S                            18000Y        L00258                                                    
S,AFR,P,G,HLGS,RW31,11811,3100,N31024601,E016365655,,00256,0000,50,148,,,SAFRP HLGSHLGRW31    1118113100 N31024601E016365655               00256000050148      0984                                 ,S,Simulation application continuation,SAFRP HLGSHLGRW31    2S                            31200N        L00256                                                    
S,AFR,P,G,HLGS,RW36,11811,3580,N31023684,E016353936,,00270,0000,50,148,ISIT,,SAFRP HLGSHLGRW36    1118113580 N31023684E016353936               00270000050148 ISIT 0984                                 ,S,Simulation application continuation,SAFRP HLGSHLGRW36    2S                            36000Y        L00270                                                    
S,AFR,P,G,HTSY,RW10,07218,0990,S03362607,E033292829,,03812,0000,50,098,,,SAFRP HTSYHTGRW10    1072180990 S03362607E033292829               03812000050098      0197                                 ,S,Simulation application continuation,SAFRP HTSYHTGRW10    2S                            09962Y        L03812                                                    
S,AFR,P,G,HTSY,RW28,07218,2790,S03363803,E033303856,,03856,0000,50,098,,,SAFRP HTSYHTGRW28    1072182790 S03363803E033303856               03856000050098      0197                                 ,S,Simulation application continuation,SAFRP HTSYHTGRW28    2S                            27962Y        L03856                                                    
S,CAN,P,G,5AK0,RW17,04432,1649,N60492259,W151475968,,00161,0000,40,100,,,SCANP 5AK0PAGRW17    1044321649 N60492259W151475968         +0056800161000040100      0000                                 ,S,Simulation application continuation,SCANP 5AK0PAGRW17    2S                            17894Y        T00185                                                    
S,CAN,P,G,5AK0,RW35,04432,3449,N60483895,W151475803,,00195,0000,55,100,,,SCANP 5AK0PAGRW35    1044323449 N60483895W151475803         +0067200195000055100      0000                                 ,S,Simulation application continuation,SCANP 5AK0PAGRW35    2S                            35894Y        T00195                                                    
S,CAN,P,G,CAV3,RW08,02151,0900,N51383774,W121184060,+2500,03029,0000,50,050,,,SCANP CAV3CYGRW08    1021510900 N51383774W121184060+2500          03029000050050      0000                                 ,S,Simulation application continuation,SCANP CAV3CYGRW08    2S                            10700N        L03029                                                    
S,CAN,P,G,CAV3,RW26,02151,2700,N51383154,W121180800,-1310,03057,0000,50,050,,,SCANP CAV3CYGRW26    1021512700 N51383154W121180800-1310          03057000050050      0000                                 ,S,Simulation application continuation,SCANP CAV3CYGRW26    2S                            28700N        L03057                                                    
S,CAN,P,G,CCQ3,RW15,05001,1530,N45252486,W063275658,,00128,0497,50,150,,,SCANP CCQ3CYGRW15    1050011530 N45252486W063275658               00128049750150      0000                                 ,S,Simulation application continuation,SCANP CCQ3CYGRW15    2S                            13500N        T00129                                                    
S,CAN,P,G,CCQ3,RW33,05001,3330,N45245343,W063271191,,00133,0000,50,150,,,SCANP CCQ3CYGRW33    1050013330 N45245343W063271191               00133000050150      0000                                 ,S,Simulation application continuation,SCANP CCQ3CYGRW33    2S                            31500N        T00136                                                    
S,CAN,P,G,CFR5,RW01,02415,0150,N46052408,W080363089,-0620,00697,0045,40,080,,,SCANP CFR5CYGRW01    1024150150 N46052408W080363089-0620    +0176700697004540080      0000                                 ,S,Simulation application continuation,SCANP CFR5CYGRW01    2S                            00500N        T00699                                                    
S,CAN,P,G,CFR5,RW10,02493,0990,N46052831,W080363223,,00708,0000,40,050,,,SCANP CFR5CYGRW10    1024930990 N46052831W080363223               00708000040050      0000                                 ,S,Simulation application continuation,SCANP CFR5CYGRW10    2S                            08900N        T00708                                                    
S,CAN,P,G,CFR5,RW19,02415,1950,N46054740,W080362823,,00682,0000,40,080,,,SCANP CFR5CYGRW19    1024151950 N46054740W080362823         +0172200682000040080      0000                                 ,S,Simulation application continuation,SCANP CFR5CYGRW19    2S                            18500N        T00688                                                    
S,CAN,P,G,CFR5,RW28,02493,2790,N46052883,W080355687,,00711,0000,40,050,,,SCANP CFR5CYGRW28    1024932790 N46052883W080355687               00711000040050      0000                                 ,S,Simulation application continuation,SCANP CFR5CYGRW28    2S                            26900N        T00711                                                    
S,CAN,P,G,CYJM,RW10,04270,1120,N54240377,W124161506,,02354,0000,50,075,,,SCANP CYJMCYGRW10    1042701120 N54240377W124161506               02354000050075      0000                                 ,S,Simulation application continuation,SCANP CYJMCYGRW10    2S                            13100N        L02354                                                    
S,CAN,P,G,CYJM,RW28,04270,2920,N54233636,W124152030,,02363,0000,50,075,,,SCANP CYJMCYGRW28    1042702920 N54233636W124152030               02363000050075      0000                                 ,S,Simulation application continuation,SCANP CYJMCYGRW28    2S                            31100N        L02363                                                    
S,CAN,P,G,CYKG,RW14,03520,1430,N61352758,W071561687,-1700,00517,0000,52,100,,,SCANP CYKGCYGRW14    1035201430 N61352758W071561687-1700    +0133900517000052100      0000                                 ,S,Simulation application continuation,SCANP CYKGCYGRW14    2S                            12100N        T00517                                                    
S,CAN,P,G,CYKG,RW32,03520,3230,N61350950,W071551481,,00478,0000,52,100,,,SCANP CYKGCYGRW32    1035203230 N61350950W071551481         +0122000478000052100      0000                                 ,S,Simulation application continuation,SCANP CYKGCYGRW32    2S                            30100N        T00481                                                    
S,CAN,P,G,CYUB,RW11,04600,1070,N69261308,W133022668,,00007,0000,50,100,,,SCANP CYUBCYGRW11    1046001070 N69261308W133022668         -0004500007000050100      0000                                 ,S,Simulation application continuation,SCANP CYUBCYGRW11    2S                            12600N        T00013                                                    
S,CAN,P,G,CYUB,RW29,04600,2870,N69254627,W133004301,,00012,0000,50,100,,,SCANP CYUBCYGRW29    1046002870 N69254627W133004301         -0003200012000050100      0000                                 ,S,Simulation application continuation,SCANP CYUBCYGRW29    2S                            30600N        T00013                                                    
S,CAN,P,G,PAMC,RW17,05936,1669,N62572775,W155361881,,00343,0546,38,100,IMCG,,SCANP PAMCPAGRW17    1059361669 N62572775W155361881         +0114400343054638100 IMCG 0000                                 ,S,Simulation application continuation,SCANP PAMCPAGRW17    2S                            17891N        T00343                                                    
S,CAN,P,G,PAMC,RW35,05936,3469,N62564008,W155361683,,00343,0547,40,100,,,SCANP PAMCPAGRW35    1059363469 N62564008W155361683               00343054740100      0000                                 ,S,Simulation application continuation,SCANP PAMCPAGRW35    2S                            35891N        T00343                                                    
S,CAN,P,G,PFZK,RW02,03300,0184,N60543517,W161295085,,00023,0000,50,060,,,SCANP PFZKPAGRW02    1033000184 N60543517W161295085               00023000050060      0000                                 ,S,Simulation application continuation,SCANP PFZKPAGRW02    2S                            02645N        T00023                                                    
S,CAN,P,G,PFZK,RW20,03300,1984,N60550426,W161292112,,00023,0000,50,060,,,SCANP PFZKPAGRW20    1033001984 N60550426W161292112               00023000050060      0000                                 ,S,Simulation application continuation,SCANP PFZKPAGRW20    2S                            20646N        T00023                                                    
S,CAN,P,G,PPIZ,RW06,04500,0606,N69435030,W163011869,,00029,0000,35,100,,,SCANP PPIZPAGRW06    1045000606 N69435030W163011869               00029000035100      0000                                 ,S,Simulation application continuation,SCANP PPIZPAGRW06    2S                            06864N        T00029                                                    
S,CAN,P,G,PPIZ,RW24,04500,2406,N69440641,W162591976,,00018,0000,35,100,,,SCANP PPIZPAGRW24    1045002406 N69440641W162591976               00018000035100      0000                                 ,S,Simulation application continuation,SCANP PPIZPAGRW24    2S                            24867N        T00024                                                    
S,CAN,P,G,Z91,RW16,04000,1754,N66164735,W145485584,,00440,0000,40,075,,,SCANP Z91 PAGRW16    1040001754 N66164735W145485584               00440000040075      0000                                 ,S,Simulation application continuation,SCANP Z91 PAGRW16    2S                            19146N        T00440                                                    
S,CAN,P,G,Z91,RW34,04000,3554,N66160877,W145491525,,00440,0000,40,075,,,SCANP Z91 PAGRW34    1040003554 N66160877W145491525               00440000040075      0000                                 ,S,Simulation application continuation,SCANP Z91 PAGRW34    2S                            01145N        T00440                                                    
S,EEU,P,G,EYKL,RW07,01640,0670,N55424100,E021142100,,00059,0000,40,069,,,SEEUP EYKLEYGRW07    1016400670 N55424100E021142100               00059000040069      0000                                 ,S,Simulation application continuation,SEEUP EYKLEYGRW07    2S                            07200Y        L00059                                                    
S,EEU,P,G,EYKL,RW25,01640,2470,N55424600,E021144800,,00059,0000,40,069,,,SEEUP EYKLEYGRW25    1016402470 N55424600E021144800               00059000040069      0000                                 ,S,Simulation application continuation,SEEUP EYKLEYGRW25    2S                            25200Y        L00059                                                    
S,EEU,P,G,LHNY,RW18R,03281,1750,N47591865,E021413288,+0000,00338,0000,40,066,,,SEEUP LHNYLHGRW18R   1032811750 N47591865E021413288+0000    +0143300338000040066      0000                                 ,S,Simulation application continuation,SEEUP LHNYLHGRW18R   2S                            18132Y        L00338                                                    
S,EEU,P,G,LHNY,RW36L,03281,3550,N47584622,E021413177,+0000,00338,0000,40,066,,,SEEUP LHNYLHGRW36L   1032813550 N47584622E021413177+0000    +0143300338000040066      0000                                 ,S,Simulation application continuation,SEEUP LHNYLHGRW36L   2S                            00132Y        L00338                                                    
S,EEU,P,G,UBLC,RW14,09843,1430,N39534422,E046211435,,05676,0000,50,148,,,SEEUP UBLCUBGRW14    1098431430 N39534422E046211435               05676000050148      0000                                 ,S,Simulation application continuation,SEEUP UBLCUBGRW14    2S                            14899Y        T05701                                                    
S,EEU,P,G,UBLC,RW32,09843,3230,N39522087,E046221936,,05690,0000,50,148,ILN,,SEEUP UBLCUBGRW32    1098433230 N39522087E046221936               05690000050148 ILN  0000                                 ,S,Simulation application continuation,SEEUP UBLCUBGRW32    2S                            32901Y        L05690                                                    
S,EEU,P,G,UCFT,RW10,05853,0950,N42302561,E072151223,,04138,0000,40,115,,,SEEUP UCFTUCGRW10    1058530950 N42302561E072151223               04138000040115      0000                                 ,S,Simulation application continuation,SEEUP UCFTUCGRW10    2S                            10052Y        L04138                                                    
S,EEU,P,G,UCFT,RW28,05853,2750,N42301506,E072162906,,04181,0000,40,115,,,SEEUP UCFTUCGRW28    1058532750 N42301506E072162906               04181000040115      0000                                 ,S,Simulation application continuation,SEEUP UCFTUCGRW28    2S                            28052Y        L04181                                                    
S,EEU,P,G,UCFV,RW04,05810,0410,N41283290,E071431765,,04202,0000,40,115,,,SEEUP UCFVUCGRW04    1058100410 N41283290E071431765               04202000040115      0000                                 ,S,Simulation application continuation,SEEUP UCFVUCGRW04    2S                            04664Y        L04202                                                    
S,EEU,P,G,UCFV,RW22,05810,2210,N41291232,E071441317,,04233,0000,40,115,,,SEEUP UCFVUCGRW22    1058102210 N41291232E071441317               04233000040115      0000                                 ,S,Simulation application continuation,SEEUP UCFVUCGRW22    2S                            22665Y        L04233                                                    
S,EEU,P,G,UCFZ,RW10,06040,1040,N41244663,E074020434,,04156,0000,40,115,,,SEEUP UCFZUCGRW10    1060401040 N41244663E074020434               04156000040115      0000                                 ,S,Simulation application continuation,SEEUP UCFZUCGRW10    2S                            10911Y        L04156                                                    
S,EEU,P,G,UCFZ,RW28,06040,2840,N41242709,E074031922,,04172,0000,40,115,,,SEEUP UCFZUCGRW28    1060402840 N41242709E074031922               04172000040115      0000                                 ,S,Simulation application continuation,SEEUP UCFZUCGRW28    2S                            28912Y        L04172                                                    
S,EEU,P,G,UUDD,RW13C,07776,1340,N55250100,E037545530,-0250,00544,0000,50,174,,,SEEUP UUDDUUGRW13C   1077761340 N55250100E037545530-0250          00544000050174      0000                                 ,S,Simulation application continuation,SEEUP UUDDUUGRW13C   2S                            14564Y        L00544                                                    
S,EEU,P,G,UUDD,RW13L,12467,1340,N55252826,E037544236,-0160,00543,0000,50,197,G13A,,SEEUP UUDDUUGRW13L   1124671340 N55252826E037544236-0160          00543000050197 G13A 0000                                 ,S,Simulation application continuation,SEEUP UUDDUUGRW13L   2S                            14564Y        L00543                                                    
S,EEU,P,G,UUDD,RW13R,11483,1340,N55251582,E037521972,-0540,00592,0000,50,197,IDM,,SEEUP UUDDUUGRW13R   1114831340 N55251582E037521972-0540          00592000050197 IDM  0000                                 ,S,Simulation application continuation,SEEUP UUDDUUGRW13R   2S                            14560Y        L00592                                                    
S,EEU,P,G,UUDD,RW31C,07776,3140,N55235773,E037561131,+0250,00524,0000,50,174,,,SEEUP UUDDUUGRW31C   1077763140 N55235773E037561131+0250          00524000050174      0000                                 ,S,Simulation application continuation,SEEUP UUDDUUGRW31C   2S                            32565Y        L00524                                                    
S,EEU,P,G,UUDD,RW31L,11483,3140,N55234243,E037541206,+0540,00531,0000,57,197,IDO,,SEEUP UUDDUUGRW31L   1114833140 N55234243E037541206+0540          00531000057197 IDO  0000                                 ,S,Simulation application continuation,SEEUP UUDDUUGRW31L   2S                            32563Y        L00531                                                    
S,EEU,P,G,UUDD,RW31R,12467,3140,N55234681,E037564422,+0160,00523,0000,50,197,G31A,,SEEUP UUDDUUGRW31R   1124673140 N55234681E037564422+0160          00523000050197 G31A 0000                                 ,S,Simulation application continuation,SEEUP UUDDUUGRW31R   2S                            32566Y        L00523                                                    
S,EEU,P,G,UZFA,RW04,10820,0410,N40431364,E072170194,,01551,0984,50,148,IAN,,SEEUP UZFAUTGRW04    1108200410 N40431364E072170194               01551098450148 IAN  0197                                 ,S,Simulation application continuation,SEEUP UZFAUTGRW04    2S                            04568Y        L01551                                                    
S,EEU,P,G,UZFA,RW22,10820,2210,N40442154,E072183336,,01568,0000,50,148,,,SEEUP UZFAUTGRW22    1108202210 N40442154E072183336               01568000050148      0197                                 ,S,Simulation application continuation,SEEUP UZFAUTGRW22    2S                            22569Y        L01568                                                    
S,EEU,P,G,UZFF,RW18,09390,1780,N40221648,E071444424,+1360,01924,0000,51,164,IZU,,SEEUP UZFFUTGRW18    1093901780 N40221648E071444424+1360          01924000051164 IZU  0184                                 ,S,Simulation application continuation,SEEUP UZFFUTGRW18    2S                            18325Y        L01924                                                    
S,EEU,P,G,UZFF,RW36,09390,3580,N40204386,E071443737,-1360,02052,0000,50,164,,,SEEUP UZFFUTGRW36    1093903580 N40204386E071443737-1360          02052000050164      0164                                 ,S,Simulation application continuation,SEEUP UZFFUTGRW36    2S                            00325Y        L02052                                                    
S,EEU,P,G,UZFN,RW10,10745,1030,N40592243,E071321821,-1570,01703,0000,50,148,,,SEEUP UZFNUTGRW10    1107451030 N40592243E071321821-1570          01703000050148      0197                                 ,S,Simulation application continuation,SEEUP UZFNUTGRW10    2S                            10854Y        L01703                                                    
S,EEU,P,G,UZFN,RW28,10745,2830,N40584865,E071343102,+1570,01534,0000,52,148,ISA,,SEEUP UZFNUTGRW28    1107452830 N40584865E071343102+1570          01534000052148 ISA  0197                                 ,S,Simulation application continuation,SEEUP UZFNUTGRW28    2S                            28857Y        L01534                                                    
S,EEU,P,G,UZNN,RW15,09865,1480,N42300514,E059365358,,00247,0000,50,148,,,SEEUP UZNNUTGRW15    1098651480 N42300514E059365358               00247000050148      0000                                 ,S,Simulation application continuation,SEEUP UZNNUTGRW15    2S                            15454Y        L00247                                                    
S,EEU,P,G,UZNN,RW33,09865,3280,N42283718,E059375016,+0020,00245,0000,54,148,IZR,,SEEUP UZNNUTGRW33    1098653280 N42283718E059375016+0020          00245000054148 IZR  0000                                 ,S,Simulation application continuation,SEEUP UZNNUTGRW33    2S                            33455Y        L00245                                                    
S,EEU,P,G,UZNU,RW13,09843,1330,N41353423,E060375480,-0010,00319,0000,50,164,,,SEEUP UZNUUTGRW13    1098431330 N41353423E060375480-0010          00319000050164      0164                                 ,S,Simulation application continuation,SEEUP UZNUUTGRW13    2S                            13950Y        L00319                                                    
S,EEU,P,G,UZNU,RW31,09843,3130,N41342028,E060391890,+0010,00318,0000,56,164,INU,,SEEUP UZNUUTGRW31    1098433130 N41342028E060391890+0010          00318000056164 INU  0164                                 ,S,Simulation application continuation,SEEUP UZNUUTGRW31    2S                            31951Y        L00318                                                    
S,EEU,P,G,UZSA,RW07,13123,0720,N40064833,E065085399,+0170,01118,0000,57,148,IHG,,SEEUP UZSAUTGRW07    1131230720 N40064833E065085399+0170          01118000057148 IHG  0246                                 ,S,Simulation application continuation,SEEUP UZSAUTGRW07    2S                            07742Y        L01118                                                    
S,EEU,P,G,UZSA,RW25,13123,2520,N40071654,E065113889,,01140,0000,58,148,INL,,SEEUP UZSAUTGRW25    1131232520 N40071654E065113889               01140000058148 INL  0246                                 ,S,Simulation application continuation,SEEUP UZSAUTGRW25    2S                            25745Y        L01140                                                    
S,EEU,P,G,UZSB,RW01,09843,0050,N39454312,E064284504,+0130,00738,0000,54,148,IUH,,SEEUP UZSBUTGRW01    1098430050 N39454312E064284504+0130          00738000054148 IUH  0177                                 ,S,Simulation application continuation,SEEUP UZSBUTGRW01    2S                            01018Y        L00738                                                    
S,EEU,P,G,UZSB,RW19,09843,1850,N39471890,E064290733,-0130,00751,0000,50,148,,,SEEUP UZSBUTGRW19    1098431850 N39471890E064290733-0130          00751000050148      0177                                 ,S,Simulation application continuation,SEEUP UZSBUTGRW19    2S                            19018Y        L00751                                                    
S,EEU,P,G,UZSK,RW16,09288,1590,N38485241,E065460706,,01229,0000,54,148,IJP,,SEEUP UZSKUTGRW16    1092881590 N38485241E065460706               01229000054148 IJP  0000                                 ,S,Simulation application continuation,SEEUP UZSKUTGRW16    2S                            16392Y        L01229                                                    
S,EEU,P,G,UZSK,RW34,09288,3390,N38472833,E065463803,,01220,0430,50,148,,,SEEUP UZSKUTGRW34    1092883390 N38472833E065463803               01220043050148      0000                                 ,S,Simulation application continuation,SEEUP UZSKUTGRW34    2S                            34392Y        L01220                                                    
S,EEU,P,G,UZSS,RW09,10187,0910,N39421095,E066575195,,02176,0000,53,148,IMZ,,SEEUP UZSSUTGRW09    1101870910 N39421095E066575195               02176000053148 IMZ  0197                                 ,S,Simulation application continuation,SEEUP UZSSUTGRW09    2S                            09569Y        L02176                                                    
S,EEU,P,G,UZSS,RW27,10187,2710,N39420133,E066595662,,02221,0394,51,148,ISD,,SEEUP UZSSUTGRW27    1101872710 N39420133E066595662               02221039451148 ISD  0197                                 ,S,Simulation application continuation,SEEUP UZSSUTGRW27    2S                            27572Y        L02221                                                    
S,EEU,P,G,UZST,RW07,09843,0700,N37170167,E067173050,+0140,01014,0000,49,148,,,SEEUP UZSTUTGRW07    1098430700 N37170167E067173050+0140          01014000049148      0197                                 ,S,Simulation application continuation,SEEUP UZSTUTGRW07    2S                            07415Y        L01014                                                    
S,EEU,P,G,UZST,RW25,09843,2500,N37172823,E067192764,,01028,0000,50,148,INO,,SEEUP UZSTUTGRW25    1098432500 N37172823E067192764               01028000050148 INO  0197                                 ,S,Simulation application continuation,SEEUP UZSTUTGRW25    2S                            25417Y        L01028                                                    
S,EEU,P,G,UZTC,RW08,08097,0750,N41305416,E069333939,+1000,02287,0000,50,105,,,SEEUP UZTCUTGRW08    1080970750 N41305416E069333939+1000          02287000050105      0164                                 ,S,Simulation application continuation,SEEUP UZTCUTGRW08    2S                            08007Y        L02287                                                    
S,EEU,P,G,UZTC,RW26,08097,2550,N41310794,E069352422,,02370,0000,50,105,,,SEEUP UZTCUTGRW26    1080972550 N41310794E069352422               02370000050105      0164                                 ,S,Simulation application continuation,SEEUP UZTCUTGRW26    2S                            26007Y        L02370                                                    
S,EEU,P,G,UZTP,RW08,13123,0760,N41183801,E069222168,,01538,0000,50,148,IIS,,SEEUP UZTPUTGRW08    1131230760 N41183801E069222168               01538000050148 IIS  0246                                 ,S,Simulation application continuation,SEEUP UZTPUTGRW08    2S                            08178Y        L01538                                                    
S,EEU,P,G,UZTP,RW26,13123,2560,N41185651,E069251189,,01583,0000,50,148,IRZ,,SEEUP UZTPUTGRW26    1131232560 N41185651E069251189               01583000050148 IRZ  0246                                 ,S,Simulation application continuation,SEEUP UZTPUTGRW26    2S                            26181Y        L01583                                                    
S,EEU,P,G,UZTT,RW08L,13123,0760,N41152213,E069153645,+0400,01369,0820,57,197,ING,,SEEUP UZTTUTGRW08L   1131230760 N41152213E069153645+0400          01369082057197 ING  0000                                 ,S,Simulation application continuation,SEEUP UZTTUTGRW08L   2S                            08169Y        L01369                                                    
S,EEU,P,G,UZTT,RW08R,12812,0760,N41151539,E069153772,+0400,01369,0656,51,148,IZW,,SEEUP UZTTUTGRW08R   1128120760 N41151539E069153772+0400          01369065651148 IZW  0000                                 ,S,Simulation application continuation,SEEUP UZTTUTGRW08R   2S                            08167Y        L01369                                                    
S,EEU,P,G,UZTT,RW26L,12812,2560,N41153177,E069180651,-0400,01412,0673,50,148,,,SEEUP UZTTUTGRW26L   1128122560 N41153177E069180651-0400          01412067350148      0000                                 ,S,Simulation application continuation,SEEUP UZTTUTGRW26L   2S                            26170Y        L01412                                                    
S,EEU,P,G,UZTT,RW26R,13123,2560,N41153850,E069180519,-0400,01414,0820,57,197,IFD,,SEEUP UZTTUTGRW26R   1131232560 N41153850E069180519-0400          01414082057197 IFD  0000                                 ,S,Simulation application continuation,SEEUP UZTTUTGRW26R   2S                            26172Y        L01414                                                    
S,EEU,P,G,ZBER,RW12,09186,1170,N43254380,E112042410,,03328,0000,50,148,,,SEEUP ZBERZBGRW12    1091861170 N43254380E112042410               03328000050148      0000                                 ,S,Simulation application continuation,SEEUP ZBERZBGRW12    2S                            11025Y        L03328                                                    
S,EEU,P,G,ZBER,RW30,09186,2970,N43251240,E112062090,,03296,0000,49,148,IER,,SEEUP ZBERZBGRW30    1091862970 N43251240E112062090               03296000049148 IER  0000                                 ,S,Simulation application continuation,SEEUP ZBERZBGRW30    2S                            29025Y        L03296                                                    
S,EEU,P,G,ZGZJ,RW15,10499,1520,N21294630,E110350960,,00067,0000,52,148,IWC,,SEEUP ZGZJZGGRW15    1104991520 N21294630E110350960               00067000052148 IWC  0000                                 ,S,Simulation application continuation,SEEUP ZGZJZGGRW15    2S                            14984Y        T00067                                                    
S,EEU,P,G,ZGZJ,RW33,10499,3320,N21281640,E110360550,,00056,0000,54,148,IZU,,SEEUP ZGZJZGGRW33    1104993320 N21281640E110360550               00056000054148 IZU  0000                                 ,S,Simulation application continuation,SEEUP ZGZJZGGRW33    2S                            32984Y        T00063                                                    
S,EEU,P,G,ZHES,RW01,08530,0120,N30184150,E109290080,,01624,0623,52,148,IGG,,SEEUP ZHESZHGRW01    1085300120 N30184150E109290080               01624062352148 IGG  0197                                 ,S,Simulation application continuation,SEEUP ZHESZHGRW01    2S                            00900Y        L01624                                                    
S,EEU,P,G,ZHES,RW19,08530,1920,N30195080,E109291350,,01596,0820,50,148,,,SEEUP ZHESZHGRW19    1085301920 N30195080E109291350               01596082050148      0197                                 ,S,Simulation application continuation,SEEUP ZHESZHGRW19    2S                            18900Y        L01596                                                    
S,EEU,P,G,ZWWW,RW08L,10499,0710,N43552511,E087271622,,02091,0000,49,148,IQD,,SEEUP ZWWWZWGRW08L   1104990710 N43552511E087271622               02091000049148 IQD  0000                                 ,S,Simulation application continuation,SEEUP ZWWWZWGRW08L   2S                            07358Y        T02091                                                    
S,EEU,P,G,ZWWW,RW08R,11811,0710,N43550966,E087270373,,02094,0000,49,148,IWQ,,SEEUP ZWWWZWGRW08R   1118110710 N43550966E087270373               02094000049148 IWQ  0000                                 ,S,Simulation application continuation,SEEUP ZWWWZWGRW08R   2S                            07358Y        T02094                                                    
S,EEU,P,G,ZWWW,RW26L,11811,2510,N43554240,E087293862,,02094,0000,49,148,IMU,,SEEUP ZWWWZWGRW26L   1118112510 N43554240E087293862               02094000049148 IMU  0000                                 ,S,Simulation application continuation,SEEUP ZWWWZWGRW26L   2S                            25358Y        T02094                                                    
S,EEU,P,G,ZWWW,RW26R,10499,2510,N43555431,E087293388,,02091,0000,49,148,IUR,,SEEUP ZWWWZWGRW26R   1104992510 N43555431E087293388               02091000049148 IUR  0000                                 ,S,Simulation application continuation,SEEUP ZWWWZWGRW26R   2S                            25358Y        T02091                                                    
S,EUR,P,G,BIIS,RW07,04593,0750,N66031851,W023085577,+0000,00008,0000,40,139,,,SEURP BIISBIGRW07    1045930750 N66031851W023085577+0000    +0066800008000040139      0000                                 ,S,Simulation application continuation,SEURP BIISBIGRW07    2S                            06186Y        L00008                                                    
S,EUR,P,G,BIIS,RW25,04593,2550,N66033981,W023071770,+0000,00008,0000,40,139,,,SEURP BIISBIGRW25    1045932550 N66033981W023071770+0000    +0066800008000040139      0000                                 ,S,Simulation application continuation,SEURP BIISBIGRW25    2S                            24188Y        L00008                                                    
S,EUR,P,G,EDAP,RW11,03543,1060,N51411194,E014251543,,00279,1115,40,075,,,SEURP EDAPEDGRW11    1035431060 N51411194E014251543               00279111540075      0000                                 ,S,Simulation application continuation,SEURP EDAPEDGRW11    2S                            11000N        A00279                                                    
S,EUR,P,G,EDAP,RW29,03543,2860,N51410375,E014255162,,00279,0000,40,075,,,SEURP EDAPEDGRW29    1035432860 N51410375E014255162               00279000040075      0000                                 ,S,Simulation application continuation,SEURP EDAPEDGRW29    2S                            29000N        A00279                                                    
S,EUR,P,G,EDDR,RW08,06529,0840,N49125107,E007054960,,01023,0164,50,148,,,SEURP EDDREDGRW08    1065290840 N49125107E007054960         +0360201023016450148      0000                                 ,S,Simulation application continuation,SEURP EDDREDGRW08    2S                            08744Y        L01023                                                    
S,EUR,P,G,EDDR,RW26,06529,2640,N49125375,E007072047,,01057,0295,50,148,DSB,,SEURP EDDREDGRW26    1065292640 N49125375E007072047         +0370701057029550148 DSB  0000                                 ,S,Simulation application continuation,SEURP EDDREDGRW26    2S                            26744Y        L01057                                                    
S,EUR,P,G,EDEW,RW05,02690,0530,N49344868,E009235402,,01309,0295,40,066,,,SEURP EDEWEDGRW05    1026900530 N49344868E009235402               01309029540066      0000                                 ,S,Simulation application continuation,SEURP EDEWEDGRW05    2S                            05700N        L01309                                                    
S,EUR,P,G,EDEW,RW23,02690,2330,N49350015,E009242242,,01322,0197,40,066,,,SEURP EDEWEDGRW23    1026902330 N49350015E009242242               01322019740066      0000                                 ,S,Simulation application continuation,SEURP EDEWEDGRW23    2S                            23700N        L01322                                                    
S,EUR,P,G,EDFR,RW02,03117,0240,N49230571,E010125594,,01309,0000,40,066,,,SEURP EDFREDGRW02    1031170240 N49230571E010125594               01309000040066      0000                                 ,S,Simulation application continuation,SEURP EDFREDGRW02    2S                            02800N        A01309                                                    
S,EUR,P,G,EDFR,RW20,03117,2040,N49233342,E010131684,,01309,0000,40,066,,,SEURP EDFREDGRW20    1031172040 N49233342E010131684               01309000040066      0000                                 ,S,Simulation application continuation,SEURP EDFREDGRW20    2S                            20800N        A01309                                                    
S,EUR,P,G,EDNR,RW09,02116,0930,N49083313,E012043831,,01298,0000,40,049,,,SEURP EDNREDGRW09    1021160930 N49083313E012043831               01298000040049      0000                                 ,S,Simulation application continuation,SEURP EDNREDGRW09    2S                            10000N        L01298                                                    
S,EUR,P,G,EDNR,RW27,02116,2730,N49082949,E012050953,,01274,0000,40,049,,,SEURP EDNREDGRW27    1021162730 N49082949E012050953               01274000040049      0000                                 ,S,Simulation application continuation,SEURP EDNREDGRW27    2S                            28000N        L01274                                                    
S,EUR,P,G,EDRF,RW07,01969,0750,N49282039,E008113262,,00351,0000,40,066,,,SEURP EDRFEDGRW07    1019690750 N49282039E008113262               00351000040066      0000                                 ,S,Simulation application continuation,SEURP EDRFEDGRW07    2S                            07700N        A00351                                                    
S,EUR,P,G,EDRF,RW25,01969,2550,N49282401,E008115599,,00351,0394,40,066,,,SEURP EDRFEDGRW25    1019692550 N49282401E008115599               00351039440066      0000                                 ,S,Simulation application continuation,SEURP EDRFEDGRW25    2S                            25700N        A00351                                                    
S,EUR,P,G,EFII,RW17,02165,1670,N63380064,E027072659,,00384,0000,40,059,,,SEURP EFIIEFGRW17    1021651670 N63380064E027072659               00384000040059      0000                                 ,S,Simulation application continuation,SEURP EFIIEFGRW17    2S                            17900Y        A00384                                                    
S,EUR,P,G,EFII,RW35,02165,3470,N63373972,E027072739,,00384,0000,40,059,,,SEURP EFIIEFGRW35    1021653470 N63373972E027072739               00384000040059      0000                                 ,S,Simulation application continuation,SEURP EFIIEFGRW35    2S                            35900Y        A00384                                                    
S,EUR,P,G,EFJM,RW09,02723,0840,N61465380,E022420700,,00505,0000,40,059,,,SEURP EFJMEFGRW09    1027230840 N61465380E022420700               00505000040059      0000                                 ,S,Simulation application continuation,SEURP EFJMEFGRW09    2S                            09410Y        A00505                                                    
S,EUR,P,G,EFJM,RW15,02723,1440,N61464010,E022425260,,00505,0000,40,049,,,SEURP EFJMEFGRW15    1027231440 N61464010E022425260               00505000040049      0000                                 ,S,Simulation application continuation,SEURP EFJMEFGRW15    2S                            15360Y        A00505                                                    
S,EUR,P,G,EFJM,RW27,02723,2640,N61465180,E022430620,,00505,0000,40,059,,,SEURP EFJMEFGRW27    1027232640 N61465180E022430620               00505000040059      0000                                 ,S,Simulation application continuation,SEURP EFJMEFGRW27    2S                            27410Y        A00505                                                    
S,EUR,P,G,EFJM,RW33,02723,3240,N61461600,E022431780,,00505,0000,40,049,,,SEURP EFJMEFGRW33    1027233240 N61461600E022431780               00505000040049      0000                                 ,S,Simulation application continuation,SEURP EFJMEFGRW33    2S                            33370Y        A00505                                                    
S,EUR,P,G,EGET,RW01,02657,0130,N60112023,W001144200,,00043,0062,40,059,,,SEURP EGETEGGRW01    1026570130 N60112023W001144200               00043006240059      0000                                 ,S,Simulation application continuation,SEURP EGETEGGRW01    2S                            01319Y        L00043                                                    
S,EUR,P,G,EGET,RW19,02657,1930,N60114336,W001143111,,00020,0000,40,059,,,SEURP EGETEGGRW19    1026571930 N60114336W001143111               00020000040059      0000                                 ,S,Simulation application continuation,SEURP EGETEGGRW19    2S                            19319Y        L00020                                                    
S,EUR,P,G,EIDL,RW02,04905,0230,N55022272,W008203820,,00009,0686,43,098,,,SEURP EIDLEIGRW02    1049050230 N55022272W008203820         +0060300009068643098      0000                                 ,S,Simulation application continuation,SEURP EIDLEIGRW02    2S                            02000Y        L00009                                                    
S,EUR,P,G,EIDL,RW20,04905,2030,N55025785,W008201546,,00030,0423,43,098,IFN,,SEURP EIDLEIGRW20    1049052030 N55025785W008201546         +0066800030042343098 IFN  0000                                 ,S,Simulation application continuation,SEURP EIDLEIGRW20    2S                            20000Y        L00030                                                    
S,EUR,P,G,ETNT,RW07,08005,0750,N53324417,E007385787,,00023,0000,50,098,,,SEURP ETNTETGRW07    1080050750 N53324417E007385787               00023000050098      0000                                 ,S,Simulation application continuation,SEURP ETNTETGRW07    2S                            07783Y        T00025                                                    
S,EUR,P,G,ETNT,RW25,08005,2550,N53330079,E007410742,,00018,0000,32,098,INTW,,SEURP ETNTETGRW25    1080052550 N53330079E007410742               00018000032098 INTW 0000                                 ,S,Simulation application continuation,SEURP ETNTETGRW25    2S                            25786Y        T00022                                                    
S,EUR,P,G,LFIV,RW09,02625,0930,N45224756,W001071589,,00021,0295,40,059,,,SEURP LFIVLFGRW09    1026250930 N45224756W001071589               00021029540059      0000                                 ,S,Simulation application continuation,SEURP LFIVLFGRW09    2S                            09300Y        L00021                                                    
S,EUR,P,G,LFIV,RW27,02625,2730,N45224649,W001064328,,00012,0000,40,059,,,SEURP LFIVLFGRW27    1026252730 N45224649W001064328               00012000040059      0000                                 ,S,Simulation application continuation,SEURP LFIVLFGRW27    2S                            27300Y        L00012                                                    
S,EUR,P,G,LFPQ,RW12L,02297,1200,N48422870,E002535730,,00364,0000,40,059,,,SEURP LFPQLFGRW12L   1022971200 N48422870E002535730               00364000040059      0000                                 ,S,Simulation application continuation,SEURP LFPQLFGRW12L   2S                            12100N        L00364                                                    
S,EUR,P,G,LFPQ,RW30R,02297,3000,N48422010,E002541980,,00370,0541,40,059,,,SEURP LFPQLFGRW30R   1022973000 N48422010E002541980               00370054140059      0000                                 ,S,Simulation application continuation,SEURP LFPQLFGRW30R   2S                            30100N        L00370                                                    
S,EUR,P,G,LFPR,RW16,02707,1610,N44105784,E004550268,,00299,0000,40,098,,,SEURP LFPRLFGRW16    1027071610 N44105784E004550268               00299000040098      0000                                 ,S,Simulation application continuation,SEURP LFPRLFGRW16    2S                            16100Y        L00299                                                    
S,EUR,P,G,LFPR,RW34,02707,3410,N44103268,E004551481,,00302,0000,40,098,,,SEURP LFPRLFGRW34    1027073410 N44103268E004551481               00302000040098      0000                                 ,S,Simulation application continuation,SEURP LFPRLFGRW34    2S                            34100Y        L00302                                                    
S,EUR,P,G,LFPT,RW04,05541,0430,N49051596,E002013863,,00274,0000,43,154,,,SEURP LFPTLFGRW04    1055410430 N49051596E002013863         +0127300274000043154      0000                                 ,S,Simulation application continuation,SEURP LFPTLFGRW04    2S                            04500Y        L00274                                                    
S,EUR,P,G,LFPT,RW22,05541,2230,N49055093,E002023120,,00312,0561,50,154,,,SEURP LFPTLFGRW22    1055412230 N49055093E002023120         +0138900312056150154      0000                                 ,S,Simulation application continuation,SEURP LFPTLFGRW22    2S                            22500Y        L00312                                                    
S,EUR,P,G,LJSO,RW14,02343,1440,N46240259,E015023314,,01239,0000,40,059,,,SEURP LJSOLJGRW14    1023431440 N46240259E015023314               01239000040059      0000                                 ,S,Simulation application continuation,SEURP LJSOLJGRW14    2S                            14919Y        A01239                                                    
S,EUR,P,G,LJSO,RW32,02343,3240,N46234271,E015025027,,01239,0000,40,059,,,SEURP LJSOLJGRW32    1023433240 N46234271E015025027               01239000040059      0000                                 ,S,Simulation application continuation,SEURP LJSOLJGRW32    2S                            32919Y        A01239                                                    
S,EUR,P,G,LOGG,RW14,02625,1440,N47085935,E016185141,,00950,0000,40,059,,,SEURP LOGGLOGRW14    1026251440 N47085935E016185141               00950000040059      0000                                 ,S,Simulation application continuation,SEURP LOGGLOGRW14    2S                            14900N        A00950                                                    
S,EUR,P,G,LOGG,RW32,02625,3240,N47083725,E016191124,,00950,0000,40,059,,,SEURP LOGGLOGRW32    1026253240 N47083725E016191124               00950000040059      0000                                 ,S,Simulation application continuation,SEURP LOGGLOGRW32    2S                            32900N        A00950                                                    
S,EUR,P,G,LOGM,RW14L,01640,1420,N47472885,E015175599,,02822,0000,40,059,,,SEURP LOGMLOGRW14L   1016401420 N47472885E015175599               02822000040059      0000                                 ,S,Simulation application continuation,SEURP LOGMLOGRW14L   2S                            14700N        A02822                                                    
S,EUR,P,G,LOGM,RW32R,01640,3220,N47471520,E015180890,,02822,0000,40,059,,,SEURP LOGMLOGRW32R   1016403220 N47471520E015180890               02822000040059      0000                                 ,S,Simulation application continuation,SEURP LOGMLOGRW32R   2S                            32700N        A02822                                                    
S,LAM,P,G,MDSD,RW18,09813,1726,N18262903,W069403076,,00039,0000,50,148,,,SLAMP MDSDMDGRW18    1098131726 N18262903W069403076               00039000050148      0000                                 ,S,Simulation application continuation,SLAMP MDSDMDGRW18    2S                            16067Y        L00039                                                    
S,LAM,P,G,MDSD,RW36,09813,3526,N18245720,W069395703,,00055,0000,50,148,,,SLAMP MDSDMDGRW36    1098133526 N18245720W069395703               00055000050148      0000                                 ,S,Simulation application continuation,SLAMP MDSDMDGRW36    2S                            34068Y        L00055                                                    
S,MES,P,G,LTAC,RW03C,12310,0300,N40065061,E032585944,+0200,03099,0000,51,197,IANK,,SMESP LTACLTGRW03C   1123100300 N40065061E032585944+0200          03099000051197 IANK 0197                                 ,S,Simulation application continuation,SMESP LTACLTGRW03C   2S                            03619Y        T03113                                                    
S,MES,P,G,LTAC,RW21C,12310,2100,N40082879,E033003299,-0200,03126,0000,50,197,IESB,,SMESP LTACLTGRW21C   1123102100 N40082879E033003299-0200          03126000050197 IESB 0197                                 ,S,Simulation application continuation,SMESP LTACLTGRW21C   2S                            21619Y        T03130                                                    
S,MES,P,G,LTAD,RW11R,04846,1075,N39570347,E032405488,,02640,0000,40,147,,,SMESP LTADLTGRW11R   1048461075 N39570347E032405488               02640000040147      0000                                 ,S,Simulation application continuation,SMESP LTADLTGRW11R   2S                            11343Y        T02642                                                    
S,MES,P,G,LTAD,RW29L,04846,2875,N39564420,E032415182,,02652,0000,40,147,,,SMESP LTADLTGRW29L   1048462875 N39564420E032415182               02652000040147      0000                                 ,S,Simulation application continuation,SMESP LTADLTGRW29L   2S                            29344Y        L02652                                                    
S,MES,P,G,OESD,RW13,12005,1270,N27544132,E045305014,,01352,0000,50,148,,,SMESP OESDOEGRW13    1120051270 N27544132E045305014               01352000050148      0984                                 ,S,Simulation application continuation,SMESP OESDOEGRW13    2S                            13000Y        T01352                                                    
S,MES,P,G,OESD,RW31,12005,3070,N27532494,E045323262,,01346,0000,53,148,IKSB,,SMESP OESDOEGRW31    1120053070 N27532494E045323262               01346000053148 IKSB 0984                                 ,S,Simulation application continuation,SMESP OESDOEGRW31    2S                            31000Y        T01348                                                    
S,MES,P,G,OESN,RW02L,10830,0220,N24272035,E046381691,-0640,02449,0331,50,148,KSND,,SMESP OESNOEGRW02L   1108300220 N24272035E046381691-0640          02449033150148 KSND 0000                                 ,S,Simulation application continuation,SMESP OESNOEGRW02L   2S                            02500Y        T02450                                                    
S,MES,P,G,OESN,RW02R,13123,0220,N24272640,E046390602,-0650,02410,1640,50,148,ISND,,SMESP OESNOEGRW02R   1131230220 N24272640E046390602-0650          02410164050148 ISND 0000                                 ,S,Simulation application continuation,SMESP OESNOEGRW02R   2S                            02500Y        L02410                                                    
S,MES,P,G,OESN,RW20L,13123,2020,N24290950,E046395855,+0650,02325,0000,50,148,,,SMESP OESNOEGRW20L   1131232020 N24290950E046395855+0650          02325000050148      0000                                 ,S,Simulation application continuation,SMESP OESNOEGRW20L   2S                            20500Y        T02335                                                    
S,MES,P,G,OESN,RW20R,10830,2020,N24285462,E046390492,+0640,02380,0000,50,148,,,SMESP OESNOEGRW20R   1108302020 N24285462E046390492+0640          02380000050148      0000                                 ,S,Simulation application continuation,SMESP OESNOEGRW20R   2S                            20500Y        T02401                                                    
S,MES,P,G,OSAP,RW09L,09547,0936,N36110100,E037123100,,01280,0000,50,148,,,SMESP OSAPOSGRW09L   1095470936 N36110100E037123100               01280000050148      0000                                 ,S,Simulation application continuation,SMESP OSAPOSGRW09L   2S                            09666N        L01280                                                    
S,MES,P,G,OSAP,RW27R,09547,2736,N36105000,E037142700,,01259,0000,50,148,,,SMESP OSAPOSGRW27R   1095472736 N36105000E037142700               01259000050148      0000                                 ,S,Simulation application continuation,SMESP OSAPOSGRW27R   2S                            27668N        L01259                                                    
S,MES,P,G,OTBT,RW16L,12297,1569,N25290347,E050594780,,00083,0000,50,197,,,SMESP OTBTOTGRW16L   1122971569 N25290347E050594780               00083000050197      0000                                 ,S,Simulation application continuation,SMESP OTBTOTGRW16L   2S                            15991Y        T00083                                                    
S,MES,P,G,OTBT,RW16R,12297,1569,N25285950,E050593587,,00079,0000,50,197,,,SMESP OTBTOTGRW16R   1122971569 N25285950E050593587               00079000050197      0000                                 ,S,Simulation application continuation,SMESP OTBTOTGRW16R   2S                            15991Y        T00084                                                    
S,MES,P,G,OTBT,RW34L,12297,3369,N25270511,E051002196,,00107,0000,50,197,,,SMESP OTBTOTGRW34L   1122973369 N25270511E051002196               00107000050197      0000                                 ,S,Simulation application continuation,SMESP OTBTOTGRW34L   2S                            33991Y        T00107                                                    
S,MES,P,G,OTBT,RW34R,12297,3369,N25270907,E051003390,,00116,0000,50,197,,,SMESP OTBTOTGRW34R   1122973369 N25270907E051003390               00116000050197      0000                                 ,S,Simulation application continuation,SMESP OTBTOTGRW34R   2S                            33991Y        T00116                                                    
S,MES,P,G,VANM,RW08,12139,0830,N18585666,E073025256,,00032,0000,54,148,INVM,,SMESP VANMVAGRW08    1121390830 N18585666E073025256               00032000054148 INVM 0000                                 ,S,Simulation application continuation,SMESP VANMVAGRW08    2S                            08237Y        T00033                                                    
S,MES,P,G,VANM,RW26,12139,2630,N18591004,E073043760,,00030,1969,55,148,INMB,,SMESP VANMVAGRW26    1121392630 N18591004E073043760               00030196955148 INMB 0000                                 ,S,Simulation application continuation,SMESP VANMVAGRW26    2S                            26237Y        T00030                                                    
S,MES,P,G,VASL,RW15,06591,1460,N17380846,E075554484,-0200,01586,0000,50,148,,,SMESP VASLVAGRW15    1065911460 N17380846E075554484-0200          01586000050148      0000                                 ,S,Simulation application continuation,SMESP VASLVAGRW15    2S                            14498Y        T01588                                                    
S,MES,P,G,VASL,RW33,06591,3260,N17371714,E075562233,+0200,01575,0272,50,148,,,SMESP VASLVAGRW33    1065913260 N17371714E075562233+0200          01575027250148      0000                                 ,S,Simulation application continuation,SMESP VASLVAGRW33    2S                            32498Y        T01585                                                    
S,MES,P,G,VIHR,RW12,09843,1190,N29114948,E075431478,,00698,0000,50,148,,,SMESP VIHRVIGRW12    1098431190 N29114948E075431478               00698000050148      0000                                 ,S,Simulation application continuation,SMESP VIHRVIGRW12    2S                            12028Y        T00700                                                    
S,MES,P,G,VIHR,RW30,09843,2990,N29110036,E075445065,,00697,0000,50,148,,,SMESP VIHRVIGRW30    1098432990 N29110036E075445065               00697000050148      0000                                 ,S,Simulation application continuation,SMESP VIHRVIGRW30    2S                            30028Y        T00698                                                    
S,MES,P,G,VIND,RW10,12795,1010,N28110048,E077353279,-0020,00653,0000,54,148,IJIA,,SMESP VINDVIGRW10    1127951010 N28110048E077353279-0020          00653000054148 IJIA 0000                                 ,S,Simulation application continuation,SMESP VINDVIGRW10    2S                            10174Y        T00653                                                    
S,MES,P,G,VIND,RW28,12795,2810,N28103471,E077375269,+0020,00650,0000,54,148,IJWR,,SMESP VINDVIGRW28    1127952810 N28103471E077375269+0020          00650000054148 IJWR 0000                                 ,S,Simulation application continuation,SMESP VINDVIGRW28    2S                            28174Y        T00650                                                    
S,PAC,P,G,RPVC,RW17,06611,1680,N12044114,E124323752,,00016,0197,40,148,,,SPACP RPVCRPGRW17    1066111680 N12044114E124323752               00016019740148      0000                                 ,S,Simulation application continuation,SPACP RPVCRPGRW17    2S                            16600Y        L00016                                                    
S,PAC,P,G,RPVC,RW35,06611,3480,N12034022,E124325254,,00015,0095,40,148,,,SPACP RPVCRPGRW35    1066113480 N12034022E124325254               00015009540148      0000                                 ,S,Simulation application continuation,SPACP RPVCRPGRW35    2S                            34600Y        L00015                                                    
S,PAC,P,G,RPVM,RW04L,08399,0470,N10180906,E123581801,+0050,00026,0000,50,148,,,SPACP RPVMRPGRW04L   1083990470 N10180906E123581801+0050          00026000050148      0000                                 ,S,Simulation application continuation,SPACP RPVMRPGRW04L   2S                            04484Y        T00031                                                    
S,PAC,P,G,RPVM,RW04R,10860,0470,N10174903,E123580763,+0120,00021,0000,50,148,,,SPACP RPVMRPGRW04R   1108600470 N10174903E123580763+0120          00021000050148      0000                                 ,S,Simulation application continuation,SPACP RPVMRPGRW04R   2S                            04484Y        T00024                                                    
S,PAC,P,G,RPVM,RW22L,10860,2270,N10190543,E123592434,,00031,0000,50,148,,,SPACP RPVMRPGRW22L   1108602270 N10190543E123592434               00031000050148      0000                                 ,S,Simulation application continuation,SPACP RPVMRPGRW22L   2S                            22484Y        T00032                                                    
S,PAC,P,G,RPVM,RW22R,08399,2270,N10190814,E123591733,-0050,00029,0000,50,148,,,SPACP RPVMRPGRW22R   1083992270 N10190814E123591733-0050          00029000050148      0000                                 ,S,Simulation application continuation,SPACP RPVMRPGRW22R   2S                            22484Y        T00029                                                    
S,PAC,P,G,VDTI,RW05,13123,0480,N11205194,E104542795,,00020,0000,53,197,IKTA,,SPACP VDTIVDGRW05    1131230480 N11205194E104542795               00020000053197 IKTA 0000                                 ,S,Simulation application continuation,SPACP VDTIVDGRW05    2S                            04742Y        T00021                                                    
S,PAC,P,G,VDTI,RW23,13123,2280,N11222008,E104560511,,00020,0000,51,197,IKTI,,SPACP VDTIVDGRW23    1131232280 N11222008E104560511               00020000051197 IKTI 0000                                 ,S,Simulation application continuation,SPACP VDTIVDGRW23    2S                            22742Y        T00021                                                    
S,PAC,P,G,VLBK,RW03,08202,0310,N20185110,E100093386,+0200,01219,0000,50,148,,,SPACP VLBKVLGRW03    1082020310 N20185110E100093386+0200          01219000050148      0197                                 ,S,Simulation application continuation,SPACP VLBKVLGRW03    2S                            03000Y        L01219                                                    
S,PAC,P,G,VLBK,RW21,08202,2110,N20200151,E100101697,-0200,01235,0000,50,148,IBOK,,SPACP VLBKVLGRW21    1082022110 N20200151E100101697-0200          01235000050148 IBOK 0197                                 ,S,Simulation application continuation,SPACP VLBKVLGRW21    2S                            21000Y        L01235                                                    
S,SAM,P,G,SAOC,RW01,06808,0052,S33060829,W064154044,,01352,0000,50,131,,,SSAMP SAOCSAGRW01    1068080052 S33060829W064154044               01352000050131      0000                                 ,S,Simulation application continuation,SSAMP SAOCSAGRW01    2S                            35933Y        L01352                                                    
S,SAM,P,G,SAOC,RW19,06808,1852,S33050093,W064154137,,01378,0000,50,131,,,SSAMP SAOCSAGRW19    1068081852 S33050093W064154137               01378000050131      0000                                 ,S,Simulation application continuation,SSAMP SAOCSAGRW19    2S                            17933Y        L01378                                                    
S,SAM,P,G,SBBE,RW03,06004,0250,S01232598,W048283776,,00021,0000,50,148,,,SSAMP SBBESBGRW03    1060040250 S01232598W048283776         -0017700021000050148      0000                                 ,S,Simulation application continuation,SSAMP SBBESBGRW03    2S                            00491Y        L00021                                                    
S,SAM,P,G,SBBE,RW07,09186,0660,S01231686,W048290603,,00037,0000,56,148,IBE,,SSAMP SBBESBGRW07    1091860660 S01231686W048290603         -0012800037000056148 IBE  0000                                 ,S,Simulation application continuation,SSAMP SBBESBGRW07    2S                            04545Y        T00045                                                    
S,SAM,P,G,SBBE,RW21,06004,2050,S01222663,W048283269,,00048,0000,50,148,,,SSAMP SBBESBGRW21    1060042050 S01222663W048283269         -0009400048000050148      0000                                 ,S,Simulation application continuation,SSAMP SBBESBGRW21    2S                            18491Y        L00048                                                    
S,SAM,P,G,SBBE,RW25,09186,2460,S01221290,W048280148,,00052,0000,50,148,,,SSAMP SBBESBGRW25    1091862460 S01221290W048280148         -0008200052000050148      0000                                 ,S,Simulation application continuation,SSAMP SBBESBGRW25    2S                            22545Y        L00052                                                    
S,SAM,P,G,SCAR,RW03,09186,0260,S18214735,W070203871,+0604,00110,0000,50,148,,,SSAMP SCARSCGRW03    1091860260 S18214735W070203871+0604          00110000050148      0000                                 ,S,Simulation application continuation,SSAMP SCARSCGRW03    2S                            01900Y        L00110                                                    
S,SAM,P,G,SCAR,RW21,09186,2060,S18202124,W070200721,-0604,00166,0000,50,148,,,SSAMP SCARSCGRW21    1091862060 S18202124W070200721-0604          00166000050148      0000                                 ,S,Simulation application continuation,SSAMP SCARSCGRW21    2S                            19900Y        L00166                                                    
S,SAM,P,G,SCFA,RW01R,07677,0110,S23271837,W070263992,+1200,00356,0000,50,098,,,SSAMP SCFASCGRW01R   1076770110 S23271837W070263992+1200          00356000050098      0000                                 ,S,Simulation application continuation,SSAMP SCFASCGRW01R   2S                            00620N        L00356                                                    
S,SAM,P,G,SCFA,RW19L,07677,1910,S23260278,W070263066,-1200,00451,0000,50,098,,,SSAMP SCFASCGRW19L   1076771910 S23260278W070263066-1200          00451000050098      0000                                 ,S,Simulation application continuation,SSAMP SCFASCGRW19L   2S                            18620N        L00451                                                    
S,SAM,P,G,SDMY,RW09,04921,0922,S21380612,W048291042,,02041,0000,40,098,,,SSAMP SDMYSBGRW09    1049210922 S21380612W048291042               02041000040098      0000                                 ,S,Simulation application continuation,SSAMP SDMYSBGRW09    2S                            07125N        A02041                                                    
S,SAM,P,G,SDMY,RW27,04921,2722,S21375044,W048282103,,02041,0000,40,098,,,SSAMP SDMYSBGRW27    1049212722 S21375044W048282103               02041000040098      0000                                 ,S,Simulation application continuation,SSAMP SDMYSBGRW27    2S                            25124N        A02041                                                    
S,SAM,P,G,SDUL,RW18,03117,1805,S21115564,W047552179,,02282,0000,40,059,,,SSAMP SDULSBGRW18    1031171805 S21115564W047552179               02282000040059      0000                                 ,S,Simulation application continuation,SSAMP SDULSBGRW18    2S                            15858N        A02282                                                    
S,SAM,P,G,SDUL,RW36,03117,0005,S21121683,W047551293,,02282,0820,40,059,,,SSAMP SDULSBGRW36    1031170005 S21121683W047551293               02282082040059      0000                                 ,S,Simulation application continuation,SSAMP SDULSBGRW36    2S                            33858N        A02282                                                    
S,SAM,P,G,SIBZ,RW14,03885,1360,S07183355,W038070377,,00957,0000,40,079,,,SSAMP SIBZSBGRW14    1038851360 S07183355W038070377               00957000040079      0000                                 ,S,Simulation application continuation,SSAMP SIBZSBGRW14    2S                            11403N        A00957                                                    
S,SAM,P,G,SIBZ,RW32,03885,3160,S07184673,W038063415,,00957,0623,40,079,,,SSAMP SIBZSBGRW32    1038853160 S07184673W038063415               00957062340079      0000                                 ,S,Simulation application continuation,SSAMP SIBZSBGRW32    2S                            29403N        A00957                                                    
S,SAM,P,G,SKUA,RW04,04462,0340,N05313868,W068403911,,00329,0000,50,092,,,SSAMP SKUASKGRW04    1044620340 N05313868W068403911               00329000050092      0000                                 ,S,Simulation application continuation,SSAMP SKUASKGRW04    2S                            02250N        L00329                                                    
S,SAM,P,G,SKUA,RW08,06020,0740,N05310905,W068414656,,00340,0000,50,138,IMDU,,SSAMP SKUASKGRW08    1060200740 N05310905W068414656               00340000050138 IMDU 0000                                 ,S,Simulation application continuation,SSAMP SKUASKGRW08    2S                            06250N        L00340                                                    
S,SAM,P,G,SKUA,RW26,06020,2540,N05313568,W068405333,,00333,0000,50,138,,,SSAMP SKUASKGRW26    1060202540 N05313568W068405333               00333000050138      0000                                 ,S,Simulation application continuation,SSAMP SKUASKGRW26    2S                            24250N        L00333                                                    
S,SAM,P,G,SNDC,RW06,04429,0586,S08020970,W049590039,,00679,0000,40,098,,,SSAMP SNDCSBGRW06    1044290586 S08020970W049590039               00679000040098      0000                                 ,S,Simulation application continuation,SSAMP SNDCSBGRW06    2S                            03768N        A00679                                                    
S,SAM,P,G,SNDC,RW24,04429,2386,S08013491,W049583343,,00679,0000,40,098,,,SSAMP SNDCSBGRW24    1044292386 S08013491W049583343               00679000040098      0000                                 ,S,Simulation application continuation,SSAMP SNDCSBGRW24    2S                            21768N        A00679                                                    
S,SAM,P,G,SNSM,RW09,05249,0910,S00415516,W047203601,,00080,0000,50,098,,,SSAMP SNSMSBGRW09    1052490910 S00415516W047203601               00080000050098      0000                                 ,S,Simulation application continuation,SSAMP SNSMSBGRW09    2S                            07100N        L00080                                                    
S,SAM,P,G,SNSM,RW27,05249,2710,S00413800,W047194700,,00093,0000,40,098,,,SSAMP SNSMSBGRW27    1052492710 S00413800W047194700               00093000040098      0000                                 ,S,Simulation application continuation,SSAMP SNSMSBGRW27    2S                            25100N        L00093                                                    
S,SPA,P,G,NWWC,RW10,01969,0960,S19431137,E163393125,,00270,0098,40,066,,,SSPAP NWWCNWGRW10    1019690960 S19431137E163393125               00270009840066      0000                                 ,S,Simulation application continuation,SSPAP NWWCNWGRW10    2S                            10700Y        L00270                                                    
S,SPA,P,G,NWWC,RW28,01969,2760,S19431649,E163394899,,00303,0098,40,066,,,SSPAP NWWCNWGRW28    1019692760 S19431649E163394899               00303009840066      0000                                 ,S,Simulation application continuation,SSPAP NWWCNWGRW28    2S                            28700Y        L00303                                                    
S,SPA,P,G,NZHN,RW18R,02067,1750,S37514070,E175195859,-0500,00169,0000,40,098,,,SSPAP NZHNNZGRW18R   1020671750 S37514070E175195859-0500          00169000040098      0000                                 ,S,Simulation application continuation,SSPAP NZHNNZGRW18R   2S                            19600Y        L00169                                                    
S,SPA,P,G,NZHN,RW36L,02067,3550,S37520034,E175195145,+0500,00162,0000,40,098,,,SSPAP NZHNNZGRW36L   1020673550 S37520034E175195145+0500          00162000040098      0000                                 ,S,Simulation application continuation,SSPAP NZHNNZGRW36L   2S                            01600Y        L00162                                                    
S,SPA,P,G,NZMK,RW02,02562,0200,S41072247,E172591857,-0220,00038,0125,40,039,,,SSPAP NZMKNZGRW02    1025620200 S41072247E172591857-0220          00038012540039      0000                                 ,S,Simulation application continuation,SSPAP NZMKNZGRW02    2S                            04300N        L00038                                                    
S,SPA,P,G,NZMK,RW20,02562,2000,S41070784,E172593863,+0220,00032,0302,40,039,,,SSPAP NZMKNZGRW20    1025622000 S41070784E172593863+0220          00032030240039      0000                                 ,S,Simulation application continuation,SSPAP NZMKNZGRW20    2S                            22300N        L00032                                                    
S,SPA,P,G,NZRR,RW09,03281,1040,S37525042,E178170704,-0910,00250,0000,40,098,,,SSPAP NZRRNZGRW09    1032811040 S37525042E178170704-0910          00250000040098      0000                                 ,S,Simulation application continuation,SSPAP NZRRNZGRW09    2S                            12500N        L00250                                                    
S,SPA,P,G,NZRR,RW27,03281,2840,S37530726,E178173719,+0910,00220,0328,40,098,,,SSPAP NZRRNZGRW27    1032812840 S37530726E178173719+0910          00220032840098      0000                                 ,S,Simulation application continuation,SSPAP NZRRNZGRW27    2S                            30500N        L00220                                                    
S,SPA,P,G,NZTJ,RW01,03173,0100,S43500424,E172320406,,00026,0000,40,098,,,SSPAP NZTJNZGRW01    1031730100 S43500424E172320406               00026000040098      0000                                 ,S,Simulation application continuation,SSPAP NZTJNZGRW01    2S                            03400N        L00026                                                    
S,SPA,P,G,NZTJ,RW19,03173,1900,S43493934,E172323031,,00026,0000,40,098,,,SSPAP NZTJNZGRW19    1031731900 S43493934E172323031               00026000040098      0000                                 ,S,Simulation application continuation,SSPAP NZTJNZGRW19    2S                            21400N        L00026                                                    
S,SPA,P,G,NZTL,RW11,03117,1100,S44000821,E170262423,-1400,02496,0361,40,036,,,SSPAP NZTLNZGRW11    1031171100 S44000821E170262423-1400          02496036140036      0000                                 ,S,Simulation application continuation,SSPAP NZTLNZGRW11    2S                            13400N        L02496                                                    
S,SPA,P,G,NZTL,RW29,03117,2900,S44002767,E170265056,+1400,02460,0000,40,036,,,SSPAP NZTLNZGRW29    1031172900 S44002767E170265056+1400          02460000040036      0000                                 ,S,Simulation application continuation,SSPAP NZTLNZGRW29    2S                            31400N        L02460                                                    
S,SPA,P,G,WAFQ,RW17,03937,1740,S01323637,E123331266,,00214,0000,40,098,,,SSPAP WAFQWAGRW17    1039371740 S01323637E123331266               00214000040098      0000                                 ,S,Simulation application continuation,SSPAP WAFQWAGRW17    2S                            17361Y        L00214                                                    
S,SPA,P,G,WAFQ,RW35,03937,3540,S01331521,E123331698,,00180,0000,50,098,,,SSPAP WAFQWAGRW35    1039373540 S01331521E123331698               00180000050098      0000                                 ,S,Simulation application continuation,SSPAP WAFQWAGRW35    2S                            35361Y        L00180                                                    
S,SPA,P,G,YCNK,RW17,03599,1764,S32464776,E151202759,,00197,0000,50,075,,,SSPAP YCNKYBGRW17    1035991764 S32464776E151202759               00197000050075      0000                                 ,S,Simulation application continuation,SSPAP YCNKYBGRW17    2S                            18848Y        L00197                                                    
S,SPA,P,G,YCNK,RW35,03599,3564,S32472300,E151202137,,00210,0000,50,075,,,SSPAP YCNKYBGRW35    1035993564 S32472300E151202137               00210000050075      0000                                 ,S,Simulation application continuation,SSPAP YCNKYBGRW35    2S                            00848Y        L00210                                                    
S,SPA,P,G,YSII,RW12,02461,1268,S09223538,E142372260,+0000,00009,0164,40,059,,,SSPAP YSIIYBGRW12    1024611268 S09223538E142372260+0000          00009016440059      0000                                 ,S,Simulation application continuation,SSPAP YSIIYBGRW12    2S                            13185Y        L00009                                                    
S,SPA,P,G,YSII,RW30,02461,3068,S09224993,E142373896,+0000,00008,0098,40,059,,,SSPAP YSIIYBGRW30    1024613068 S09224993E142373896+0000          00008009840059      0000                                 ,S,Simulation application continuation,SSPAP YSIIYBGRW30    2S                            31185Y        L00008                                                    
S,SPA,P,G,YTHN,RW07,06234,0744,S28092002,E120554681,,01704,0000,50,098,,,SSPAP YTHNYMGRW07    1062340744 S28092002E120554681               01704000050098      0000                                 ,S,Simulation application continuation,SSPAP YTHNYMGRW07    2S                            07547Y        L01704                                                    
S,SPA,P,G,YTHN,RW25,06234,2544,S28090453,E120565421,,01695,0000,50,098,,,SSPAP YTHNYMGRW25    1062342544 S28090453E120565421               01695000050098      0000                                 ,S,Simulation application continuation,SSPAP YTHNYMGRW25    2S                            25546Y        L01695                                                    
S,USA,P,G,06FA,RW10,07003,0949,N26542935,W080201831,,00028,0241,54,150,ISYK,,SUSAP 06FAK7GRW10    1070030949 N26542935W080201831               00028024154150 ISYK 0000                                 ,S,Simulation application continuation,SUSAP 06FAK7GRW10    2S                            08998N        T00028                                                    
S,USA,P,G,06FA,RW28,07003,2749,N26542936,W080190627,,00028,0241,50,150,,,SUSAP 06FAK7GRW28    1070032749 N26542936W080190627               00028024150150      0000                                 ,S,Simulation application continuation,SUSAP 06FAK7GRW28    2S                            26999N        T00028                                                    
S,USA,P,G,0J0,RW18,05000,1731,N31363070,W085142273,,00465,0000,40,075,,,SUSAP 0J0 K7GRW18    1050001731 N31363070W085142273               00465000040075      0000                                 ,S,Simulation application continuation,SUSAP 0J0 K7GRW18    2S                            17211N        T00468                                                    
S,USA,P,G,0J0,RW36,05000,3531,N31354169,W085141479,,00465,0000,40,075,,,SUSAP 0J0 K7GRW36    1050003531 N31354169W085141479               00465000040075      0000                                 ,S,Simulation application continuation,SUSAP 0J0 K7GRW36    2S                            35211N        T00468                                                    
S,USA,P,G,0S5,RW16,02443,1513,N46142449,W116142049,,03202,0604,40,050,,,SUSAP 0S5 K1GRW16    1024431513 N46142449W116142049               03202060440050      0000                                 ,S,Simulation application continuation,SUSAP 0S5 K1GRW16    2S                            16939N        L03202                                                    
S,USA,P,G,0S5,RW34,02443,3313,N46141199,W116141705,,03203,0550,40,050,,,SUSAP 0S5 K1GRW34    1024433313 N46141199W116141705               03203055040050      0000                                 ,S,Simulation application continuation,SUSAP 0S5 K1GRW34    2S                            34939N        L03203                                                    
S,USA,P,G,12G,RW03,01890,0315,N40521978,W082415930,,01120,0000,40,125,,,SUSAP 12G K5GRW03    1018900315 N40521978W082415930               01120000040125      0000                                 ,S,Simulation application continuation,SUSAP 12G K5GRW03    2S                            02512N        T01120                                                    
S,USA,P,G,12G,RW21,01890,2115,N40523669,W082414886,,01118,0000,40,125,,,SUSAP 12G K5GRW21    1018902115 N40523669W082414886               01118000040125      0000                                 ,S,Simulation application continuation,SUSAP 12G K5GRW21    2S                            20512N        T01120                                                    
S,USA,P,G,14J,RW02,03050,0163,N31242157,W086052995,,00254,0000,40,075,,,SUSAP 14J K7GRW02    1030500163 N31242157W086052995               00254000040075      0000                                 ,S,Simulation application continuation,SUSAP 14J K7GRW02    2S                            01539N        T00258                                                    
S,USA,P,G,14J,RW20,03050,1963,N31245067,W086052061,,00251,0000,40,075,,,SUSAP 14J K7GRW20    1030501963 N31245067W086052061               00251000040075      0000                                 ,S,Simulation application continuation,SUSAP 14J K7GRW20    2S                            19539N        T00258                                                    
S,USA,P,G,2U4,RW16,02800,1639,N43113601,W112315452,,04465,0000,40,050,,,SUSAP 2U4 K1GRW16    1028001639 N43113601W112315452               04465000040050      0000                                 ,S,Simulation application continuation,SUSAP 2U4 K1GRW16    2S                            17994N        A04465                                                    
S,USA,P,G,2U4,RW34,02800,3439,N43110835,W112315448,,04465,0000,40,050,,,SUSAP 2U4 K1GRW34    1028003439 N43110835W112315448               04465000040050      0000                                 ,S,Simulation application continuation,SUSAP 2U4 K1GRW34    2S                            35994N        A04465                                                    
S,USA,P,G,41TT,RW18,05432,1793,N30111710,W099242533,,02009,0300,50,100,,,SUSAP 41TTK4GRW18    1054321793 N30111710W099242533               02009030050100      0000                                 ,S,Simulation application continuation,SUSAP 41TTK4GRW18    2S                            18331N        T02062                                                    
S,USA,P,G,41TT,RW36,05432,3593,N30102847,W099242857,,02093,0211,50,100,,,SUSAP 41TTK4GRW36    1054323593 N30102847W099242857               02093021150100      0000                                 ,S,Simulation application continuation,SUSAP 41TTK4GRW36    2S                            00331N        T02096                                                    
S,USA,P,G,51AL,RW01,02700,0113,N34583157,W086530302,,00922,0000,40,100,,,SUSAP 51ALK7GRW01    1027000113 N34583157W086530302               00922000040100      0000                                 ,S,Simulation application continuation,SUSAP 51ALK7GRW01    2S                            01135N        L00922                                                    
S,USA,P,G,51AL,RW19,02700,1913,N34585776,W086525663,,00901,0000,40,100,,,SUSAP 51ALK7GRW19    1027001913 N34585776W086525663               00901000040100      0000                                 ,S,Simulation application continuation,SUSAP 51ALK7GRW19    2S                            19135N        L00901                                                    
S,USA,P,G,54CL,RW10,03593,0977,N33312407,W116480572,,03372,0000,40,040,,,SUSAP 54CLK2GRW10    1035930977 N33312407W116480572               03372000040040      0000                                 ,S,Simulation application continuation,SUSAP 54CLK2GRW10    2S                            11077N        L03372                                                    
S,USA,P,G,54CL,RW28,03593,2777,N33311147,W116472604,,03404,0000,40,040,,,SUSAP 54CLK2GRW28    1035932777 N33311147W116472604               03404000040040      0000                                 ,S,Simulation application continuation,SUSAP 54CLK2GRW28    2S                            29078N        L03404                                                    
S,USA,P,G,64G,RW17,02600,1725,N47102552,W097285502,,01213,0000,40,030,,,SUSAP 64G K3GRW17    1026001725 N47102552W097285502               01213000040030      0000                                 ,S,Simulation application continuation,SUSAP 64G K3GRW17    2S                            17950N        L01213                                                    
S,USA,P,G,64G,RW35,02600,3525,N47095986,W097285469,,01218,0000,40,030,,,SUSAP 64G K3GRW35    1026003525 N47095986W097285469               01218000040030      0000                                 ,S,Simulation application continuation,SUSAP 64G K3GRW35    2S                            35950N        L01218                                                    
S,USA,P,G,77F,RW18,03204,1763,N31570575,W099590894,,01866,0000,40,050,,,SUSAP 77F K4GRW18    1032041763 N31570575W099590894         +0543001866000040050      0000                                 ,S,Simulation application continuation,SUSAP 77F K4GRW18    2S                            18039N        T01870                                                    
S,USA,P,G,77F,RW36,03204,3563,N31563405,W099590919,,01871,0000,40,050,,,SUSAP 77F K4GRW36    1032043563 N31563405W099590919         +0544701871000040050      0000                                 ,S,Simulation application continuation,SUSAP 77F K4GRW36    2S                            00039N        T01871                                                    
S,USA,P,G,80F,RW18,04001,1778,N34115663,W095385959,,00575,0000,40,060,,,SUSAP 80F K4GRW18    1040011778 N34115663W095385959         +0145500575000040060      0000                                 ,S,Simulation application continuation,SUSAP 80F K4GRW18    2S                            17982N        T00577                                                    
S,USA,P,G,80F,RW36,04001,3578,N34111706,W095385943,,00570,0000,43,060,,,SUSAP 80F K4GRW36    1040013578 N34111706W095385943         +0143900570000043060      0000                                 ,S,Simulation application continuation,SUSAP 80F K4GRW36    2S                            35982N        T00576                                                    
S,USA,P,G,89CA,RW04,03353,0431,N35383100,W120511800,,01433,0000,40,025,,,SUSAP 89CAK2GRW04    1033530431 N35383100W120511800               01433000040025      0000                                 ,S,Simulation application continuation,SUSAP 89CAK2GRW04    2S                            05814N        L01433                                                    
S,USA,P,G,89CA,RW22,03353,2231,N35384850,W120504350,,01488,0000,40,025,,,SUSAP 89CAK2GRW22    1033532231 N35384850W120504350               01488000040025      0000                                 ,S,Simulation application continuation,SUSAP 89CAK2GRW22    2S                            23815N        L01488                                                    
S,USA,P,G,D50,RW03,02680,0379,N48552837,W103175865,,01949,0000,40,100,,,SUSAP D50 K3GRW03    1026800379 N48552837W103175865               01949000040100      0000                                 ,S,Simulation application continuation,SUSAP D50 K3GRW03    2S                            04496N        T01951                                                    
S,USA,P,G,D50,RW21,02680,2179,N48554708,W103173030,,01942,0000,40,100,,,SUSAP D50 K3GRW21    1026802179 N48554708W103173030               01942000040100      0000                                 ,S,Simulation application continuation,SUSAP D50 K3GRW21    2S                            22497N        T01951                                                    
S,USA,P,G,FL59,RW14,04416,1424,N26390563,W081424767,,00020,0374,40,075,,,SUSAP FL59K7GRW14    1044161424 N26390563W081424767               00020037440075      0000                                 ,S,Simulation application continuation,SUSAP FL59K7GRW14    2S                            14044N        L00020                                                    
S,USA,P,G,FL59,RW32,04416,3224,N26383566,W081422014,,00020,0119,40,075,,,SUSAP FL59K7GRW32    1044163224 N26383566W081422014               00020011940075      0000                                 ,S,Simulation application continuation,SUSAP FL59K7GRW32    2S                            32044N        L00020                                                    
S,USA,P,G,K78,RW18,04100,1770,N38543302,W097140904,,01152,0186,57,075,,,SUSAP K78 K3GRW18    1041001770 N38543302W097140904         +0322401152018657075      0000                                 ,S,Simulation application continuation,SUSAP K78 K3GRW18    2S                            18006N        T01152                                                    
S,USA,P,G,K78,RW36,04100,3570,N38535433,W097140910,,01150,0000,40,075,,,SUSAP K78 K3GRW36    1041003570 N38535433W097140910         +0321801150000040075      0000                                 ,S,Simulation application continuation,SUSAP K78 K3GRW36    2S                            00006N        T01151                                                    
S,USA,P,G,KAFF,RW09,02493,0888,N38583364,W104491927,,06528,0000,40,075,,,SUSAP KAFFK2GRW09    1024930888 N38583364W104491927               06528000040075      0000                                 ,S,Simulation application continuation,SUSAP KAFFK2GRW09    2S                            09582N        L06528                                                    
S,USA,P,G,KAFF,RW27,02493,2688,N38583114,W104484786,,06576,0000,40,075,,,SUSAP KAFFK2GRW27    1024932688 N38583114W104484786               06576000040075      0000                                 ,S,Simulation application continuation,SUSAP KAFFK2GRW27    2S                            27583N        L06576                                                    
S,USA,P,G,KASY,RW15,04364,1509,N46014288,W099212234,,02019,0000,40,060,,,SUSAP KASYK3GRW15    1043641509 N46014288W099212234         +0592402019000040060      0000                                 ,S,Simulation application continuation,SUSAP KASYK3GRW15    2S                            15498N        T02030                                                    
S,USA,P,G,KASY,RW33,04364,3309,N46010384,W099205620,,02034,0000,40,060,,,SUSAP KASYK3GRW33    1043643309 N46010384W099205620         +0597102034000040060      0000                                 ,S,Simulation application continuation,SUSAP KASYK3GRW33    2S                            33499N        T02034                                                    
S,USA,P,G,KBFZ,RW05,06114,0503,N34132469,W086154791,,01003,0000,42,100,,,SUSAP KBFZK7GRW05    1061140503 N34132469W086154791         +0276501003000042100      0000                                 ,S,Simulation application continuation,SUSAP KBFZK7GRW05    2S                            04832N        T01015                                                    
S,USA,P,G,KBFZ,RW23,06114,2303,N34140490,W086145353,,01032,0000,42,100,,,SUSAP KBFZK7GRW23    1061142303 N34140490W086145353         +0285501032000042100      0000                                 ,S,Simulation application continuation,SUSAP KBFZK7GRW23    2S                            22833N        T01032                                                    
S,USA,P,G,KFBG,RW10,04121,0949,N35075410,W078563198,,00240,0000,50,100,,,SUSAP KFBGK7GRW10    1041210949 N35075410W078563198               00240000050100      0000                                 ,S,Simulation application continuation,SUSAP KFBGK7GRW10    2S                            08593N        T00242                                                    
S,USA,P,G,KFBG,RW28,04121,2749,N35075699,W078554251,,00223,0000,50,100,,,SUSAP KFBGK7GRW28    1041212749 N35075699W078554251         +0034700223000050100      0000                                 ,S,Simulation application continuation,SUSAP KFBGK7GRW28    2S                            26594N        T00242                                                    
S,USA,P,G,KHAO,RW12,05500,1163,N39215900,W084315182,,00632,0000,40,100,,,SUSAP KHAOK5GRW12    1055001163 N39215900W084315182         +0158900632000040100      0000                                 ,S,Simulation application continuation,SUSAP KHAOK5GRW12    2S                            11037N        T00632                                                    
S,USA,P,G,KHAO,RW30,05500,2963,N39214007,W084304618,,00619,0000,46,100,IRQF,,SUSAP KHAOK5GRW30    1055002963 N39214007W084304618         +0155000619000046100 IRQF 0000                                 ,S,Simulation application continuation,SUSAP KHAOK5GRW30    2S                            29038N        T00619                                                    
S,USA,P,G,KSSF,RW10,05000,0995,N29201780,W098284642,,00577,0450,40,100,,,SUSAP KSSFK4GRW10    1050000995 N29201780W098284642               00577045040100      0000                                 ,S,Simulation application continuation,SUSAP KSSFK4GRW10    2S                            10253N        T00577                                                    
S,USA,P,G,KSSF,RW28,05000,2795,N29200803,W098275623,,00565,0000,40,100,,,SUSAP KSSFK4GRW28    1050002795 N29200803W098275623         +0146700565000040100      0000                                 ,S,Simulation application continuation,SUSAP KSSFK4GRW28    2S                            28253N        T00570                                                    
S,USA,P,G,KSVR,RW16,05862,1584,N40373907,W111593940,,04603,0000,40,100,,,SUSAP KSVRK2GRW16    1058621584 N40373907W111593940               04603000040100      0000                                 ,S,Simulation application continuation,SUSAP KSVRK2GRW16    2S                            17244N        T04607                                                    
S,USA,P,G,KSVR,RW34,05862,3384,N40364166,W111592940,,04602,0000,58,100,,,SUSAP KSVRK2GRW34    1058623384 N40364166W111592940         +1385404602000058100      0000                                 ,S,Simulation application continuation,SUSAP KSVRK2GRW34    2S                            35244N        T04606                                                    
S,USA,P,G,KTAN,RW04,01034,0425,N41523920,W071011661,,00024,0000,40,060,,,SUSAP KTANK6GRW04    1010340425 N41523920W071011661               00024000040060      0000                                 ,S,Simulation application continuation,SUSAP KTANK6GRW04    2S                            02654N        T00026                                                    
S,USA,P,G,KTAN,RW22,01034,2225,N41524834,W071011050,,00026,0000,40,060,,,SUSAP KTANK6GRW22    1010342225 N41524834W071011050               00026000040060      0000                                 ,S,Simulation application continuation,SUSAP KTANK6GRW22    2S                            20654N        T00026                                                    
S,USA,P,G,KVAD,RW01L,08002,0064,N30572628,W083114355,+0100,00221,0000,59,150,,,SUSAP KVADK7GRW01L   1080020064 N30572628W083114355+0100    +0038500221000059150      0000                                 ,S,Simulation application continuation,SUSAP KVADK7GRW01L   2S                            00047Y        T00225                                                    
S,USA,P,G,KVAD,RW01R,09300,0064,N30572255,W083112781,+0300,00206,0000,55,150,IMDG,,SUSAP KVADK7GRW01R   1093000064 N30572255W083112781+0300    +0034200206000055150 IMDG 0000                                 ,S,Simulation application continuation,SUSAP KVADK7GRW01R   2S                            00048Y        T00217                                                    
S,USA,P,G,KVAD,RW19L,09300,1864,N30585459,W083112691,-0300,00233,0000,49,150,IVAD,,SUSAP KVADK7GRW19L   1093001864 N30585459W083112691-0300    +0042400233000049150 IVAD 0000                                 ,S,Simulation application continuation,SUSAP KVADK7GRW19L   2S                            18048Y        T00233                                                    
S,USA,P,G,KVAD,RW19R,08002,1864,N30584547,W083114280,-0100,00231,0000,49,150,,,SUSAP KVADK7GRW19R   1080021864 N30584547W083114280-0100    +0041600231000049150      0000                                 ,S,Simulation application continuation,SUSAP KVADK7GRW19R   2S                            18047Y        T00231                                                    
S,USA,P,G,O81,RW12,03577,1119,N41533743,W121215661,,04044,0000,40,045,,,SUSAP O81 K2GRW12    1035771119 N41533743W121215661               04044000040045      0000                                 ,S,Simulation application continuation,SUSAP O81 K2GRW12    2S                            12896N        T04047                                                    
S,USA,P,G,O81,RW30,03577,2919,N41531522,W121211985,,04049,0000,40,045,,,SUSAP O81 K2GRW30    1035772919 N41531522W121211985               04049000040045      0000                                 ,S,Simulation application continuation,SUSAP O81 K2GRW30    2S                            30896N        T04049                                                    
S,USA,P,G,P10,RW04,04200,0425,N35471801,W110254521,,05562,0000,40,050,,,SUSAP P10 K2GRW04    1042000425 N35471801W110254521               05562000040050      0000                                 ,S,Simulation application continuation,SUSAP P10 K2GRW04    2S                            05559N        L05562                                                    
S,USA,P,G,P10,RW22,04200,2225,N35474149,W110250314,,05573,0000,40,050,,,SUSAP P10 K2GRW22    1042002225 N35474149W110250314               05573000040050      0000                                 ,S,Simulation application continuation,SUSAP P10 K2GRW22    2S                            23559N        L05573                                                    
S,USA,P,G,TA24,RW15,04580,1519,N31283953,W098421686,,01338,0000,40,075,,,SUSAP TA24K4GRW15    1045801519 N31283953W098421686               01338000040075      0000                                 ,S,Simulation application continuation,SUSAP TA24K4GRW15    2S                            15590N        T01342                                                    
S,USA,P,G,TA24,RW33,04580,3319,N31275815,W098415527,,01312,0000,40,075,,,SUSAP TA24K4GRW33    1045803319 N31275815W098415527               01312000040075      0000                                 ,S,Simulation application continuation,SUSAP TA24K4GRW33    2S                            33591N        T01330                                                    
S,USA,P,G,U01,RW04,04900,0355,N42473529,W112495640,,04413,0000,50,050,,,SUSAP U01 K1GRW04    1049000355 N42473529W112495640               04413000050050      0000                                 ,S,Simulation application continuation,SUSAP U01 K1GRW04    2S                            05156N        T04419                                                    
S,USA,P,G,U01,RW22,04900,2155,N42480537,W112490493,,04413,0000,50,050,,,SUSAP U01 K1GRW22    1049002155 N42480537W112490493               04413000050050      0000                                 ,S,Simulation application continuation,SUSAP U01 K1GRW22    2S                            23157N        T04419                                                    
