record_type,area_code,sec,sub,icao,runway_id,rwy_length_ft,rwy_mag_brg_tenths,lat_raw,lon_raw,rwy_grad_pct100,lthr_elev_ft,dthr_ft,tch_raw,rwy_width_ft,loc_mls_gls_ident,loc_cat_class,primary_1_123,cont#2_appl_code,cont#2_appl_label,cont#2_1_123
S,AFR,P,G,DAUH,RW18,09843,1820,N31411109,E006082956,,00456,0000,50,148,,,SAFRP DAUHDAGRW18    1098431820 N31411109E006082956               00456000050148      0328                                 ,S,Simulation application continuation,SAFRP DAUHDAGRW18    2S                            18400Y        L00456                                                    
S,AFR,P,G,DAUH,RW36,09843,0020,N31393347,E006082113,,00459,0000,50,148,HM,,SAFRP DAUHDAGRW36    1098430020 N31393347E006082113               00459000050148 HM   0328                                 ,S,Simulation application continuation,SAFRP DAUHDAGRW36    2S                            00400Y        L00459                                                    
S,AFR,P,G,FKKN,RW02,08858,0210,N07204570,E013331698,,03649,0131,50,148,,,SAFRP FKKNFKGRW02    1088580210 N07204570E013331698               03649013150148      0197                                 ,S,Simulation application continuation,SAFRP FKKNFKGRW02    2S                            02200N        L03649                                                    
S,AFR,P,G,FKKN,RW20,08858,2010,N07220137,E013334806,,03609,0492,50,148,,,SAFRP FKKNFKGRW20    1088582010 N07220137E013334806               03609049250148      0197                                 ,S,Simulation application continuation,SAFRP FKKNFKGRW20    2S                            20200N        L03609                                                    
S,AFR,P,G,HEBA,RW14L,11155,1380,N30554932,E029410631,,00177,0000,50,148,,,SAFRP HEBAHEGRW14L   1111551380 N30554932E029410631               00177000050148      0000                                 ,S,Simulation application continuation,SAFRP HEBAHEGRW14L   2S                            14285Y        L00177                                                    
S,AFR,P,G,HEBA,RW14R,11155,1380,N30554478,E029405941,,00172,0000,50,148,,,SAFRP HEBAHEGRW14R   1111551380 N30554478E029405941               00172000050148      0000                                 ,S,Simulation application continuation,SAFRP HEBAHEGRW14R   2S                            14284Y        L00172                                                    
S,AFR,P,G,HEBA,RW32L,11155,3180,N30541679,E029421674,,00127,0000,50,148,,,SAFRP HEBAHEGRW32L   1111553180 N30541679E029421674               00127000050148      0000                                 ,S,Simulation application continuation,SAFRP HEBAHEGRW32L   2S                            32285Y        L00127                                                    
S,AFR,P,G,HEBA,RW32R,11155,3180,N30542131,E029422364,,00133,0000,53,148,BIL,,SAFRP HEBAHEGRW32R   1111553180 N30542131E029422364               00133000053148 BIL  0000                                 ,S,Simulation application continuation,SAFRP HEBAHEGRW32R   2S                            32286Y        L00133                                                    
S,AFR,P,G,HLGD,RW18,11811,1780,N31043378,E016353774,,00258,0000,50,148,,,SAFRP HLGDHLGRW18    1118111780 N31043378E016353774               00258000050148      0984                                 ,S,Simulation application continuation,SAFRP HLGDHLGRW18    2S                            18000Y        L00258                                                    
S,AFR,P,G,HLGD,RW36,11811,3580,N31023684,E016353936,,00270,0000,50,148,ISIT,,SAFRP HLGDHLGRW36    1118113580 N31023684E016353936               00270000050148 ISIT 0984                                 ,S,Simulation application continuation,SAFRP HLGDHLGRW36    2S                            36000Y        L00270                                                    
S,AFR,P,G,HLLQ,RW03,06427,0270,N32464778,E021573066,,02132,0000,50,148,,,SAFRP HLLQHLGRW03    1064270270 N32464778E021573066               02132000050148      0000                                 ,S,Simulation application continuation,SAFRP HLLQHLGRW03    2S                            02900Y        L02132                                                    
S,AFR,P,G,HLLQ,RW21,06427,2070,N32474320,E021580756,,02168,0000,50,148,,,SAFRP HLLQHLGRW21    1064272070 N32474320E021580756               02168000050148      0000                                 ,S,Simulation application continuation,SAFRP HLLQHLGRW21    2S                            20900Y        L02168                                                    
S,CAN,P,G,CBB6,RW06,05002,0640,N56234070,W129570875,-0520,01447,1001,50,100,,,SCANP CBB6CYGRW06    1050020640 N56234070W129570875-0520          01447100150100      0000                                 ,S,Simulation application continuation,SCANP CBB6CYGRW06    2S                            08300N        L01447                                                    
S,CAN,P,G,CBB6,RW24,05002,2440,N56234576,W129555824,,01426,0000,50,100,,,SCANP CBB6CYGRW24    1050022440 N56234576W129555824               01426000050100      0000                                 ,S,Simulation application continuation,SCANP CBB6CYGRW24    2S                            26300N        L01426                                                    
S,CAN,P,G,CCQ3,RW16,05001,1530,N45252486,W063275658,,00128,0497,50,150,,,SCANP CCQ3CYGRW16    1050011530 N45252486W063275658               00128049750150      0000                                 ,S,Simulation application continuation,SCANP CCQ3CYGRW16    2S                            13500N        T00129                                                    
S,CAN,P,G,CCQ3,RW34,05001,3330,N45245343,W063271191,,00133,0000,50,150,,,SCANP CCQ3CYGRW34    1050013330 N45245343W063271191               00133000050150      0000                                 ,S,Simulation application continuation,SCANP CCQ3CYGRW34    2S                            31500N        T00136                                                    
S,CAN,P,G,CXX2,RW10,05378,0980,N52130319,W090283035,,01219,0000,50,070,,,SCANP CXX2CYGRW10    1053780980 N52130319W090283035               01219000050070      0000                                 ,S,Simulation application continuation,SCANP CXX2CYGRW10    2S                            09400N        T01221                                                    
S,CAN,P,G,CXX2,RW28,05378,2780,N52125889,W090270429,,01228,0000,50,070,,,SCANP CXX2CYGRW28    1053782780 N52125889W090270429               01228000050070      0000                                 ,S,Simulation application continuation,SCANP CXX2CYGRW28    2S                            27400N        T01228                                                    
S,CAN,P,G,CYKG,RW15,03520,1430,N61352758,W071561687,-1700,00517,0000,52,100,,,SCANP CYKGCYGRW15    1035201430 N61352758W071561687-1700    +0133900517000052100      0000                                 ,S,Simulation application continuation,SCANP CYKGCYGRW15    2S                            12100N        T00517                                                    
S,CAN,P,G,CYKG,RW33,03520,3230,N61350950,W071551481,,00478,0000,52,100,,,SCANP CYKGCYGRW33    1035203230 N61350950W071551481         +0122000478000052100      0000                                 ,S,Simulation application continuation,SCANP CYKGCYGRW33    2S                            30100N        T00481                                                    
S,CAN,P,G,CYUB,RW10,04600,1070,N69261308,W133022668,,00007,0000,50,100,,,SCANP CYUBCYGRW10    1046001070 N69261308W133022668         -0004500007000050100      0000                                 ,S,Simulation application continuation,SCANP CYUBCYGRW10    2S                            12600N        T00013                                                    
S,CAN,P,G,CYUB,RW28,04600,2870,N69254627,W133004301,,00012,0000,50,100,,,SCANP CYUBCYGRW28    1046002870 N69254627W133004301         -0003200012000050100      0000                                 ,S,Simulation application continuation,SCANP CYUBCYGRW28    2S                            30600N        T00013                                                    
S,CAN,P,G,PABI,RW07,04057,0690,N63592928,W145434911,,01268,0000,50,088,,,SCANP PABIPAGRW07    1040570690 N63592928W145434911         +0399901268000050088      0000                                 ,S,Simulation application continuation,SCANP PABIPAGRW07    2S                            09207Y        T01268                                                    
S,CAN,P,G,PABI,RW25,04057,2490,N63592783,W145421823,,01257,0000,50,088,,,SCANP PABIPAGRW25    1040572490 N63592783W145421823         +0396601257000050088      0000                                 ,S,Simulation application continuation,SCANP PABIPAGRW25    2S                            27209Y        T01264                                                    
S,CAN,P,G,PAMC,RW16,05936,1599,N62572775,W155361880,,00343,0546,32,100,IMCG,,SCANP PAMCPAGRW16    1059361599 N62572775W155361880         +0113800343054632100 IMCG 0000                                 ,S,Simulation application continuation,SCANP PAMCPAGRW16    2S                            17891N        T00343                                                    
S,CAN,P,G,PAMC,RW34,05936,3399,N62564008,W155361682,,00341,0547,40,100,,,SCANP PAMCPAGRW34    1059363399 N62564008W155361682               00341054740100      0000                                 ,S,Simulation application continuation,SCANP PAMCPAGRW34    2S                            35891N        T00343                                                    
S,CAN,P,G,PPIZ,RW05,04500,0536,N69435030,W163011869,,00029,0000,35,100,,,SCANP PPIZPAGRW05    1045000536 N69435030W163011869               00029000035100      0000                                 ,S,Simulation application continuation,SCANP PPIZPAGRW05    2S                            06864N        T00029                                                    
S,CAN,P,G,PPIZ,RW23,04500,2336,N69440641,W162591976,,00018,0000,35,100,,,SCANP PPIZPAGRW23    1045002336 N69440641W162591976               00018000035100      0000                                 ,S,Simulation application continuation,SCANP PPIZPAGRW23    2S                            24867N        T00024                                                    
S,EEU,P,G,EYKL,RW07R,01640,0670,N55424100,E021142100,,00059,0000,40,069,,,SEEUP EYKLEYGRW07R   1016400670 N55424100E021142100               00059000040069      0000                                 ,S,Simulation application continuation,SEEUP EYKLEYGRW07R   2S                            07200Y        L00059                                                    
S,EEU,P,G,EYKL,RW25L,01640,2470,N55424600,E021144800,,00059,0000,40,069,,,SEEUP EYKLEYGRW25L   1016402470 N55424600E021144800               00059000040069      0000                                 ,S,Simulation application continuation,SEEUP EYKLEYGRW25L   2S                            25200Y        L00059                                                    
S,EEU,P,G,LHNY,RW18,03281,1750,N47591865,E021413288,,00338,0000,40,066,,,SEEUP LHNYLHGRW18    1032811750 N47591865E021413288         +0143300338000040066      0000                                 ,S,Simulation application continuation,SEEUP LHNYLHGRW18    2S                            18132Y        L00338                                                    
S,EEU,P,G,LHNY,RW36,03281,3550,N47584622,E021413177,,00338,0000,40,066,,,SEEUP LHNYLHGRW36    1032813550 N47584622E021413177         +0143300338000040066      0000                                 ,S,Simulation application continuation,SEEUP LHNYLHGRW36    2S                            00132Y        L00338                                                    
S,EEU,P,G,URKG,RW01,10171,0070,N44340656,E038002957,,00090,0000,54,148,IGN,,SEEUP URKGURGRW01    1101710070 N44340656E038002957               00090000054148 IGN  0000                                 ,S,Simulation application continuation,SEEUP URKGURGRW01    2S                            01410Y        T00110                                                    
S,EEU,P,G,URKG,RW19,10171,1870,N44354396,E038010383,,00131,0000,50,148,,,SEEUP URKGURGRW19    1101711870 N44354396E038010383               00131000050148      0000                                 ,S,Simulation application continuation,SEEUP URKGURGRW19    2S                            19411Y        L00131                                                    
S,EEU,P,G,UTFA,RW04,09793,0410,N40430332,E072164752,,01543,0000,47,144,IAN,,SEEUP UTFAUTGRW04    1097930410 N40430332E072164752               01543000047144 IAN  0164                                 ,S,Simulation application continuation,SEEUP UTFAUTGRW04    2S                            04568Y        L01543                                                    
S,EEU,P,G,UTFA,RW22,09793,2210,N40441085,E072181851,,01559,0000,50,144,,,SEEUP UTFAUTGRW22    1097932210 N40441085E072181851               01559000050144      0164                                 ,S,Simulation application continuation,SEEUP UTFAUTGRW22    2S                            22568Y        L01559                                                    
S,EEU,P,G,UTFF,RW18,09390,1780,N40221648,E071444424,+1360,01924,0000,51,164,IZU,,SEEUP UTFFUTGRW18    1093901780 N40221648E071444424+1360          01924000051164 IZU  0184                                 ,S,Simulation application continuation,SEEUP UTFFUTGRW18    2S                            18325Y        L01924                                                    
S,EEU,P,G,UTFF,RW36,09390,3580,N40204386,E071443737,-1360,02052,0000,50,164,,,SEEUP UTFFUTGRW36    1093903580 N40204386E071443737-1360          02052000050164      0164                                 ,S,Simulation application continuation,SEEUP UTFFUTGRW36    2S                            00325Y        L02052                                                    
S,EEU,P,G,UTFN,RW10,10745,1030,N40592243,E071321821,-1570,01703,0000,50,148,,,SEEUP UTFNUTGRW10    1107451030 N40592243E071321821-1570          01703000050148      0197                                 ,S,Simulation application continuation,SEEUP UTFNUTGRW10    2S                            10854Y        L01703                                                    
S,EEU,P,G,UTFN,RW28,10745,2830,N40584865,E071343102,+1570,01534,0000,52,148,ISA,,SEEUP UTFNUTGRW28    1107452830 N40584865E071343102+1570          01534000052148 ISA  0197                                 ,S,Simulation application continuation,SEEUP UTFNUTGRW28    2S                            28857Y        L01534                                                    
S,EEU,P,G,UTNN,RW15,09865,1480,N42300514,E059365358,,00247,0000,50,148,,,SEEUP UTNNUTGRW15    1098651480 N42300514E059365358               00247000050148      0000                                 ,S,Simulation application continuation,SEEUP UTNNUTGRW15    2S                            15454Y        L00247                                                    
S,EEU,P,G,UTNN,RW33,09865,3280,N42283718,E059375016,+0020,00245,0000,56,148,IZR,,SEEUP UTNNUTGRW33    1098653280 N42283718E059375016+0020          00245000056148 IZR  0000                                 ,S,Simulation application continuation,SEEUP UTNNUTGRW33    2S                            33455Y        L00245                                                    
S,EEU,P,G,UTNU,RW13,09843,1330,N41353440,E060375481,,00320,0000,50,164,,,SEEUP UTNUUTGRW13    1098431330 N41353440E060375481               00320000050164      0164                                 ,S,Simulation application continuation,SEEUP UTNUUTGRW13    2S                            13952Y        L00320                                                    
S,EEU,P,G,UTNU,RW31,09843,3130,N41342042,E060391887,+0010,00319,0000,54,164,INU,,SEEUP UTNUUTGRW31    1098433130 N41342042E060391887+0010          00319000054164 INU  0164                                 ,S,Simulation application continuation,SEEUP UTNUUTGRW31    2S                            31954Y        L00319                                                    
S,EEU,P,G,UTSA,RW07,13123,0720,N40064833,E065085399,+0170,01118,0000,57,148,IHG,,SEEUP UTSAUTGRW07    1131230720 N40064833E065085399+0170          01118000057148 IHG  0246                                 ,S,Simulation application continuation,SEEUP UTSAUTGRW07    2S                            07742Y        L01118                                                    
S,EEU,P,G,UTSA,RW25,13123,2520,N40071654,E065113889,,01140,0000,58,148,INL,,SEEUP UTSAUTGRW25    1131232520 N40071654E065113889               01140000058148 INL  0246                                 ,S,Simulation application continuation,SEEUP UTSAUTGRW25    2S                            25745Y        L01140                                                    
S,EEU,P,G,UTSB,RW01,09843,0050,N39454312,E064284504,+0130,00738,0000,54,148,IUH,,SEEUP UTSBUTGRW01    1098430050 N39454312E064284504+0130          00738000054148 IUH  0177                                 ,S,Simulation application continuation,SEEUP UTSBUTGRW01    2S                            01018Y        L00738                                                    
S,EEU,P,G,UTSB,RW19,09843,1850,N39471890,E064290733,-0130,00751,0000,50,148,,,SEEUP UTSBUTGRW19    1098431850 N39471890E064290733-0130          00751000050148      0177                                 ,S,Simulation application continuation,SEEUP UTSBUTGRW19    2S                            19018Y        L00751                                                    
S,EEU,P,G,UTSK,RW16,09268,1590,N38485234,E065460716,,01229,0000,56,148,IJP,,SEEUP UTSKUTGRW16    1092681590 N38485234E065460716               01229000056148 IJP  0000                                 ,S,Simulation application continuation,SEEUP UTSKUTGRW16    2S                            16392Y        L01229                                                    
S,EEU,P,G,UTSK,RW34,09268,3390,N38472820,E065463816,+0100,01219,0410,50,148,,,SEEUP UTSKUTGRW34    1092683390 N38472820E065463816+0100          01219041050148      0000                                 ,S,Simulation application continuation,SEEUP UTSKUTGRW34    2S                            34392Y        L01219                                                    
S,EEU,P,G,UTSS,RW09,10187,0910,N39421095,E066575195,,02176,0000,53,148,IMZ,,SEEUP UTSSUTGRW09    1101870910 N39421095E066575195               02176000053148 IMZ  0197                                 ,S,Simulation application continuation,SEEUP UTSSUTGRW09    2S                            09569Y        L02176                                                    
S,EEU,P,G,UTSS,RW27,10187,2710,N39420133,E066595662,,02221,0394,51,148,ISD,,SEEUP UTSSUTGRW27    1101872710 N39420133E066595662               02221039451148 ISD  0197                                 ,S,Simulation application continuation,SEEUP UTSSUTGRW27    2S                            27572Y        L02221                                                    
S,EEU,P,G,UTST,RW07,09843,0700,N37170167,E067173050,+0140,01014,0000,49,148,,,SEEUP UTSTUTGRW07    1098430700 N37170167E067173050+0140          01014000049148      0197                                 ,S,Simulation application continuation,SEEUP UTSTUTGRW07    2S                            07415Y        L01014                                                    
S,EEU,P,G,UTST,RW25,09843,2500,N37172823,E067192764,,01028,0000,50,148,INO,,SEEUP UTSTUTGRW25    1098432500 N37172823E067192764               01028000050148 INO  0197                                 ,S,Simulation application continuation,SEEUP UTSTUTGRW25    2S                            25417Y        L01028                                                    
S,EEU,P,G,UTTC,RW08,08097,0750,N41305416,E069333939,+1000,02287,0000,50,105,,,SEEUP UTTCUTGRW08    1080970750 N41305416E069333939+1000          02287000050105      0164                                 ,S,Simulation application continuation,SEEUP UTTCUTGRW08    2S                            08007Y        L02287                                                    
S,EEU,P,G,UTTC,RW26,08097,2550,N41310794,E069352422,,02370,0000,50,105,,,SEEUP UTTCUTGRW26    1080972550 N41310794E069352422               02370000050105      0164                                 ,S,Simulation application continuation,SEEUP UTTCUTGRW26    2S                            26007Y        L02370                                                    
S,EEU,P,G,UTTT,RW08L,13123,0760,N41152213,E069153642,+0400,01369,0820,57,197,ING,,SEEUP UTTTUTGRW08L   1131230760 N41152213E069153642+0400          01369082057197 ING  0000                                 ,S,Simulation application continuation,SEEUP UTTTUTGRW08L   2S                            08167Y        T01369                                                    
S,EEU,P,G,UTTT,RW08R,12812,0760,N41151540,E069153776,+0400,01369,0656,51,148,IZW,,SEEUP UTTTUTGRW08R   1128120760 N41151540E069153776+0400          01369065651148 IZW  0000                                 ,S,Simulation application continuation,SEEUP UTTTUTGRW08R   2S                            08166Y        L01369                                                    
S,EEU,P,G,UTTT,RW26L,12812,2560,N41153177,E069180650,-0400,01412,0673,50,148,,,SEEUP UTTTUTGRW26L   1128122560 N41153177E069180650-0400          01412067350148      0000                                 ,S,Simulation application continuation,SEEUP UTTTUTGRW26L   2S                            26168Y        L01412                                                    
S,EEU,P,G,UTTT,RW26R,13123,2560,N41153847,E069180509,-0400,01414,0820,57,197,IFD,,SEEUP UTTTUTGRW26R   1131232560 N41153847E069180509-0400          01414082057197 IFD  0000                                 ,S,Simulation application continuation,SEEUP UTTTUTGRW26R   2S                            26170Y        T01414                                                    
S,EEU,P,G,UUDD,RW14C,07776,1350,N55250100,E037545530,-0250,00544,0000,50,174,,,SEEUP UUDDUUGRW14C   1077761350 N55250100E037545530-0250          00544000050174      0000                                 ,S,Simulation application continuation,SEEUP UUDDUUGRW14C   2S                            14564Y        L00544                                                    
S,EEU,P,G,UUDD,RW14L,12467,1350,N55252826,E037544236,-0160,00543,0000,50,197,G14A,,SEEUP UUDDUUGRW14L   1124671350 N55252826E037544236-0160          00543000050197 G14A 0000                                 ,S,Simulation application continuation,SEEUP UUDDUUGRW14L   2S                            14564Y        L00543                                                    
S,EEU,P,G,UUDD,RW14R,11483,1350,N55251582,E037521972,-0540,00592,0000,50,197,IDM,,SEEUP UUDDUUGRW14R   1114831350 N55251582E037521972-0540          00592000050197 IDM  0000                                 ,S,Simulation application continuation,SEEUP UUDDUUGRW14R   2S                            14560Y        L00592                                                    
S,EEU,P,G,UUDD,RW32C,07776,3150,N55235773,E037561131,+0250,00524,0000,50,174,,,SEEUP UUDDUUGRW32C   1077763150 N55235773E037561131+0250          00524000050174      0000                                 ,S,Simulation application continuation,SEEUP UUDDUUGRW32C   2S                            32565Y        L00524                                                    
S,EEU,P,G,UUDD,RW32L,11483,3150,N55234243,E037541206,+0540,00531,0000,57,197,IDO,,SEEUP UUDDUUGRW32L   1114833150 N55234243E037541206+0540          00531000057197 IDO  0000                                 ,S,Simulation application continuation,SEEUP UUDDUUGRW32L   2S                            32563Y        L00531                                                    
S,EEU,P,G,UUDD,RW32R,12467,3150,N55234681,E037564422,+0160,00523,0000,50,197,G32A,,SEEUP UUDDUUGRW32R   1124673150 N55234681E037564422+0160          00523000050197 G32A 0000                                 ,S,Simulation application continuation,SEEUP UUDDUUGRW32R   2S                            32566Y        L00523                                                    
S,EEU,P,G,ZWWW,RW07,11811,0710,N43540913,E087270975,,02125,0000,49,148,IOY,,SEEUP ZWWWZWGRW07    1118110710 N43540913E087270975               02125000049148 IOY  0000                                 ,S,Simulation application continuation,SEEUP ZWWWZWGRW07    2S                            07358Y        L02125                                                    
S,EEU,P,G,ZWWW,RW25,11811,2510,N43544212,E087294451,,02126,0000,49,148,IRM,,SEEUP ZWWWZWGRW25    1118112510 N43544212E087294451               02126000049148 IRM  0000                                 ,S,Simulation application continuation,SEEUP ZWWWZWGRW25    2S                            25358Y        L02126                                                    
S,EUR,P,G,BIHU,RW20,05259,2020,N65573431,W017252061,+0080,00044,0000,40,098,,,SEURP BIHUBIGRW20    1052592020 N65573431W017252061+0080          00044000040098      0000                                 ,S,Simulation application continuation,SEURP BIHUBIGRW20    2S                            19160Y        L00044                                                    
S,EUR,P,G,BIIS,RW08,04593,0760,N66031851,W023085577,+0000,00008,0000,40,139,,,SEURP BIISBIGRW08    1045930760 N66031851W023085577+0000    +0066800008000040139      0000                                 ,S,Simulation application continuation,SEURP BIISBIGRW08    2S                            06186Y        L00008                                                    
S,EUR,P,G,BIIS,RW26,04593,2560,N66033981,W023071770,+0000,00008,0000,40,139,,,SEURP BIISBIGRW26    1045932560 N66033981W023071770+0000    +0066800008000040139      0000                                 ,S,Simulation application continuation,SEURP BIISBIGRW26    2S                            24188Y        L00008                                                    
S,EUR,P,G,EDAZ,RW12,02297,1210,N52123323,E013091825,,00152,0000,40,059,,,SEURP EDAZEDGRW12    1022971210 N52123323E013091825               00152000040059      0000                                 ,S,Simulation application continuation,SEURP EDAZEDGRW12    2S                            12600N        A00152                                                    
S,EUR,P,G,EDAZ,RW30,02297,3010,N52121995,E013094796,,00152,0000,40,059,,,SEURP EDAZEDGRW30    1022973010 N52121995E013094796               00152000040059      0000                                 ,S,Simulation application continuation,SEURP EDAZEDGRW30    2S                            30600N        A00152                                                    
S,EUR,P,G,EDDR,RW09,06529,0860,N49125107,E007054960,,01024,0164,50,148,,,SEURP EDDREDGRW09    1065290860 N49125107E007054960         +0360001024016450148      0000                                 ,S,Simulation application continuation,SEURP EDDREDGRW09    2S                            08800N        T01024                                                    
S,EUR,P,G,EDDR,RW27,06529,2660,N49125375,E007072047,,01058,0295,56,148,DSB,,SEURP EDDREDGRW27    1065292660 N49125375E007072047               01058029556148 DSB  0000                                 ,S,Simulation application continuation,SEURP EDDREDGRW27    2S                            26800N        T01058                                                    
S,EUR,P,G,EDEW,RW06,02690,0550,N49344868,E009235402,,01309,0295,40,066,,,SEURP EDEWEDGRW06    1026900550 N49344868E009235402               01309029540066      0000                                 ,S,Simulation application continuation,SEURP EDEWEDGRW06    2S                            05700N        L01309                                                    
S,EUR,P,G,EDEW,RW24,02690,2350,N49350015,E009242242,,01322,0197,40,066,,,SEURP EDEWEDGRW24    1026902350 N49350015E009242242               01322019740066      0000                                 ,S,Simulation application continuation,SEURP EDEWEDGRW24    2S                            23700N        L01322                                                    
S,EUR,P,G,EDFR,RW03,03117,0250,N49230571,E010125594,,01309,0000,40,066,,,SEURP EDFREDGRW03    1031170250 N49230571E010125594               01309000040066      0000                                 ,S,Simulation application continuation,SEURP EDFREDGRW03    2S                            02800N        A01309                                                    
S,EUR,P,G,EDFR,RW21,03117,2050,N49233342,E010131684,,01309,0000,40,066,,,SEURP EDFREDGRW21    1031172050 N49233342E010131684               01309000040066      0000                                 ,S,Simulation application continuation,SEURP EDFREDGRW21    2S                            20800N        A01309                                                    
S,EUR,P,G,EDNR,RW10,02116,0950,N49083313,E012043831,,01298,0000,40,049,,,SEURP EDNREDGRW10    1021160950 N49083313E012043831               01298000040049      0000                                 ,S,Simulation application continuation,SEURP EDNREDGRW10    2S                            09800N        L01298                                                    
S,EUR,P,G,EDNR,RW28,02116,2750,N49082949,E012050953,,01274,0000,40,049,,,SEURP EDNREDGRW28    1021162750 N49082949E012050953               01274000040049      0000                                 ,S,Simulation application continuation,SEURP EDNREDGRW28    2S                            27800N        L01274                                                    
S,EUR,P,G,EDRF,RW08,01969,0750,N49282039,E008113262,,00351,0000,40,066,,,SEURP EDRFEDGRW08    1019690750 N49282039E008113262               00351000040066      0000                                 ,S,Simulation application continuation,SEURP EDRFEDGRW08    2S                            07700N        A00351                                                    
S,EUR,P,G,EDRF,RW26,01969,2550,N49282401,E008115599,,00351,0394,40,066,,,SEURP EDRFEDGRW26    1019692550 N49282401E008115599               00351039440066      0000                                 ,S,Simulation application continuation,SEURP EDRFEDGRW26    2S                            25700N        A00351                                                    
S,EUR,P,G,EDUS,RW09,03937,0850,N51362628,E013434452,,00399,0000,40,098,,,SEURP EDUSEDGRW09    1039370850 N51362628E013434452               00399000040098      0000                                 ,S,Simulation application continuation,SEURP EDUSEDGRW09    2S                            08900N        A00399                                                    
S,EUR,P,G,EDUS,RW27,03937,2650,N51362721,E013444683,,00399,0000,40,098,,,SEURP EDUSEDGRW27    1039372650 N51362721E013444683               00399000040098      0000                                 ,S,Simulation application continuation,SEURP EDUSEDGRW27    2S                            26900N        A00399                                                    
S,EUR,P,G,EDXH,RW03,01217,0250,N54110451,E007545179,,00008,0000,40,066,,,SEURP EDXHEDGRW03    1012170250 N54110451E007545179               00008000040066      0000                                 ,S,Simulation application continuation,SEURP EDXHEDGRW03    2S                            02700N        A00008                                                    
S,EUR,P,G,EDXH,RW21,01217,2050,N54111669,E007550222,,00008,0000,40,066,,,SEURP EDXHEDGRW21    1012172050 N54111669E007550222               00008000040066      0000                                 ,S,Simulation application continuation,SEURP EDXHEDGRW21    2S                            20700N        A00008                                                    
S,EUR,P,G,EGCN,RW02,09495,0180,N53275111,W001003617,,00052,0502,53,197,IFIN,,SEURP EGCNEGGRW02    1094950180 N53275111W001003617         +0063800052050253197 IFIN 0000                                 ,S,Simulation application continuation,SEURP EGCNEGGRW02    2S                            01765Y        T00052                                                    
S,EUR,P,G,EGCN,RW20,09495,1980,N53291093,W000595358,,00026,0499,52,197,IFNL,,SEURP EGCNEGGRW20    1094951980 N53291093W000595358         +0055400026049952197 IFNL 0000                                 ,S,Simulation application continuation,SEURP EGCNEGGRW20    2S                            19766Y        T00031                                                    
S,EUR,P,G,EGET,RW02,02657,0140,N60112023,W001144200,,00043,0062,40,059,,,SEURP EGETEGGRW02    1026570140 N60112023W001144200               00043006240059      0000                                 ,S,Simulation application continuation,SEURP EGETEGGRW02    2S                            01319Y        L00043                                                    
S,EUR,P,G,EGET,RW20,02657,1940,N60114336,W001143111,,00020,0000,40,059,,,SEURP EGETEGGRW20    1026571940 N60114336W001143111               00020000040059      0000                                 ,S,Simulation application continuation,SEURP EGETEGGRW20    2S                            19319Y        L00020                                                    
S,EUR,P,G,EGPL,RW17,03963,1700,N57291300,W007215678,,00018,0000,40,148,,,SEURP EGPLEGGRW17    1039631700 N57291300W007215678               00018000040148      0000                                 ,S,Simulation application continuation,SEURP EGPLEGGRW17    2S                            16702Y        L00018                                                    
S,EUR,P,G,EGPL,RW35,03963,3500,N57283499,W007214051,,00013,0000,40,148,,,SEURP EGPLEGGRW35    1039633500 N57283499W007214051               00013000040148      0000                                 ,S,Simulation application continuation,SEURP EGPLEGGRW35    2S                            34702Y        L00013                                                    
S,EUR,P,G,EGSF,RW10,03238,0940,N52280630,W000152960,,00026,0000,40,075,,,SEURP EGSFEGGRW10    1032380940 N52280630W000152960               00026000040075      0000                                 ,S,Simulation application continuation,SEURP EGSFEGGRW10    2S                            09444Y        L00026                                                    
S,EUR,P,G,EGSF,RW28,03238,2740,N52280410,W000144330,,00026,0364,40,075,,,SEURP EGSFEGGRW28    1032382740 N52280410W000144330               00026036440075      0000                                 ,S,Simulation application continuation,SEURP EGSFEGGRW28    2S                            27445Y        L00026                                                    
S,EUR,P,G,EGTU,RW17,03159,1700,N50520135,W003140890,,00839,0000,40,151,,,SEURP EGTUEGGRW17    1031591700 N50520135W003140890               00839000040151      0000                                 ,S,Simulation application continuation,SEURP EGTUEGGRW17    2S                            16900N        A00839                                                    
S,EUR,P,G,EGTU,RW35,03159,3500,N50513071,W003135993,,00839,0000,40,151,,,SEURP EGTUEGGRW35    1031593500 N50513071W003135993               00839000040151      0000                                 ,S,Simulation application continuation,SEURP EGTUEGGRW35    2S                            34900N        A00839                                                    
S,EUR,P,G,EIDL,RW03,04908,0250,N55022276,W008203817,,00010,0686,50,098,,,SEURP EIDLEIGRW03    1049080250 N55022276W008203817               00010068650098      0000                                 ,S,Simulation application continuation,SEURP EIDLEIGRW03    2S                            02000Y        L00010                                                    
S,EUR,P,G,EIDL,RW21,04908,2050,N55025786,W008201545,,00030,0423,50,098,IFN,,SEURP EIDLEIGRW21    1049082050 N55025786W008201545               00030042350098 IFN  0000                                 ,S,Simulation application continuation,SEURP EIDLEIGRW21    2S                            20000Y        L00030                                                    
S,EUR,P,G,ETNT,RW08,08005,0750,N53324417,E007385787,,00024,0000,50,098,,,SEURP ETNTETGRW08    1080050750 N53324417E007385787               00024000050098      0000                                 ,S,Simulation application continuation,SEURP ETNTETGRW08    2S                            07783Y        T00026                                                    
S,EUR,P,G,ETNT,RW26,08005,2550,N53330079,E007410742,,00019,0000,32,098,INTW,,SEURP ETNTETGRW26    1080052550 N53330079E007410742               00019000032098 INTW 0000                                 ,S,Simulation application continuation,SEURP ETNTETGRW26    2S                            25786Y        T00023                                                    
S,EUR,P,G,LFPQ,RW12,02297,1200,N48422871,E002535719,,00371,0000,40,059,,,SEURP LFPQLFGRW12    1022971200 N48422871E002535719               00371000040059      0000                                 ,S,Simulation application continuation,SEURP LFPQLFGRW12    2S                            12100N        A00371                                                    
S,EUR,P,G,LFPQ,RW30,02297,3000,N48422007,E002541975,,00371,0541,40,059,,,SEURP LFPQLFGRW30    1022973000 N48422007E002541975               00371054140059      0000                                 ,S,Simulation application continuation,SEURP LFPQLFGRW30    2S                            30100N        A00371                                                    
S,EUR,P,G,LFPT,RW05,05541,0440,N49051596,E002013863,,00274,0000,43,154,,,SEURP LFPTLFGRW05    1055410440 N49051596E002013863         +0127300274000043154      0000                                 ,S,Simulation application continuation,SEURP LFPTLFGRW05    2S                            04500Y        L00274                                                    
S,EUR,P,G,LFPT,RW23,05541,2240,N49055093,E002023120,,00312,0561,50,154,,,SEURP LFPTLFGRW23    1055412240 N49055093E002023120         +0138900312056150154      0000                                 ,S,Simulation application continuation,SEURP LFPTLFGRW23    2S                            22500Y        L00312                                                    
S,EUR,P,G,LJSO,RW15,02343,1450,N46240259,E015023314,,01239,0000,40,059,,,SEURP LJSOLJGRW15    1023431450 N46240259E015023314               01239000040059      0000                                 ,S,Simulation application continuation,SEURP LJSOLJGRW15    2S                            14919Y        A01239                                                    
S,EUR,P,G,LJSO,RW33,02343,3250,N46234271,E015025027,,01239,0000,40,059,,,SEURP LJSOLJGRW33    1023433250 N46234271E015025027               01239000040059      0000                                 ,S,Simulation application continuation,SEURP LJSOLJGRW33    2S                            32919Y        A01239                                                    
S,EUR,P,G,LOAV,RW08,01312,0780,N47574169,E016152918,,00767,0000,40,098,,,SEURP LOAVLOGRW08    1013120780 N47574169E016152918               00767000040098      0000                                 ,S,Simulation application continuation,SEURP LOAVLOGRW08    2S                            08300Y        A00767                                                    
S,EUR,P,G,LOAV,RW26,01312,2580,N47574327,E016154832,,00767,0000,40,098,,,SEURP LOAVLOGRW26    1013122580 N47574327E016154832               00767000040098      0000                                 ,S,Simulation application continuation,SEURP LOAVLOGRW26    2S                            26300Y        A00767                                                    
S,EUR,P,G,LOGG,RW15,02625,1440,N47085935,E016185141,,00949,0000,40,059,,,SEURP LOGGLOGRW15    1026251440 N47085935E016185141               00949000040059      0000                                 ,S,Simulation application continuation,SEURP LOGGLOGRW15    2S                            14900N        A00949                                                    
S,EUR,P,G,LOGG,RW33,02625,3240,N47083725,E016191124,,00949,0000,40,059,,,SEURP LOGGLOGRW33    1026253240 N47083725E016191124               00949000040059      0000                                 ,S,Simulation application continuation,SEURP LOGGLOGRW33    2S                            32900N        A00949                                                    
S,EUR,P,G,LOGM,RW15L,01640,1420,N47472885,E015175599,,02822,0000,40,059,,,SEURP LOGMLOGRW15L   1016401420 N47472885E015175599               02822000040059      0000                                 ,S,Simulation application continuation,SEURP LOGMLOGRW15L   2S                            14700N        A02822                                                    
S,EUR,P,G,LOGM,RW33R,01640,3220,N47471520,E015180890,,02822,0000,40,059,,,SEURP LOGMLOGRW33R   1016403220 N47471520E015180890               02822000040059      0000                                 ,S,Simulation application continuation,SEURP LOGMLOGRW33R   2S                            32700N        A02822                                                    
S,LAM,P,G,MDAN,RW12,02953,1200,N19075618,W070134084,,00197,0000,50,049,,,SLAMP MDANMDGRW12    1029531200 N19075618W070134084               00197000050049      0000                                 ,S,Simulation application continuation,SLAMP MDANMDGRW12    2S                            10900N        A00197                                                    
S,LAM,P,G,MDAN,RW30,02953,3000,N19074665,W070131171,,00197,0000,50,049,,,SLAMP MDANMDGRW30    1029533000 N19074665W070131171               00197000050049      0000                                 ,S,Simulation application continuation,SLAMP MDANMDGRW30    2S                            28900N        A00197                                                    
S,MES,P,G,OEKK,RW13,12005,1270,N27544132,E045305014,,01352,0000,50,148,,,SMESP OEKKOEGRW13    1120051270 N27544132E045305014               01352000050148      0000                                 ,S,Simulation application continuation,SMESP OEKKOEGRW13    2S                            13000Y        T01352                                                    
S,MES,P,G,OEKK,RW31,12005,3070,N27532494,E045323263,,01346,0000,53,148,IKMC,,SMESP OEKKOEGRW31    1120053070 N27532494E045323263               01346000053148 IKMC 0000                                 ,S,Simulation application continuation,SMESP OEKKOEGRW31    2S                            31000Y        T01348                                                    
S,MES,P,G,OOGB,RW12,08399,1240,N21230094,E057024698,-0070,00442,0000,50,148,,,SMESP OOGBOOGRW12    1083991240 N21230094E057024698-0070          00442000050148      0000                                 ,S,Simulation application continuation,SMESP OOGBOOGRW12    2S                            12500Y        L00442                                                    
S,MES,P,G,OOGB,RW30,08399,3040,N21221342,E057035999,+0070,00436,0000,50,148,,,SMESP OOGBOOGRW30    1083993040 N21221342E057035999+0070          00436000050148      0000                                 ,S,Simulation application continuation,SMESP OOGBOOGRW30    2S                            30500Y        L00436                                                    
S,MES,P,G,OPGD,RW06,06503,0620,N25134163,E062190747,,00022,0000,50,075,,,SMESP OPGDOPGRW06    1065030620 N25134163E062190747               00022000050075      0000                                 ,S,Simulation application continuation,SMESP OPGDOPGRW06    2S                            06257Y        L00022                                                    
S,MES,P,G,OPGD,RW24,06503,2420,N25141130,E062201033,,00032,0000,50,075,,,SMESP OPGDOPGRW24    1065032420 N25141130E062201033               00032000050075      0000                                 ,S,Simulation application continuation,SMESP OPGDOPGRW24    2S                            24257Y        L00032                                                    
S,PAC,P,G,RPVM,RW04,10860,0468,N10174903,E123580763,+0120,00021,0000,50,148,,,SPACP RPVMRPGRW04    1108600468 N10174903E123580763+0120          00021000050148      0161                                 ,S,Simulation application continuation,SPACP RPVMRPGRW04    2S                            04485Y        T00026                                                    
S,PAC,P,G,RPVM,RW22,10860,2268,N10190543,E123592434,,00031,0000,50,148,,,SPACP RPVMRPGRW22    1108602268 N10190543E123592434               00031000050148      0187                                 ,S,Simulation application continuation,SPACP RPVMRPGRW22    2S                            22485Y        T00034                                                    
S,SAM,P,G,SAOC,RW18,06808,1840,S33050093,W064154137,,01378,0000,50,131,,,SSAMP SAOCSAGRW18    1068081840 S33050093W064154137               01378000050131      0000                                 ,S,Simulation application continuation,SSAMP SAOCSAGRW18    2S                            18000N        L01378                                                    
S,SAM,P,G,SAOC,RW36,06808,0040,S33060829,W064154044,,01352,0000,50,131,,,SSAMP SAOCSAGRW36    1068080040 S33060829W064154044               01352000050131      0000                                 ,S,Simulation application continuation,SSAMP SAOCSAGRW36    2S                            36000N        L01352                                                    
S,SAM,P,G,SBBE,RW02,06004,0250,S01232590,W048283776,,00021,0000,50,148,,,SSAMP SBBESBGRW02    1060040250 S01232590W048283776         -0017700021000050148      0000                                 ,S,Simulation application continuation,SSAMP SBBESBGRW02    2S                            00491Y        L00021                                                    
S,SAM,P,G,SBBE,RW06,09186,0660,S01231686,W048290603,,00037,0000,56,148,IBE,,SSAMP SBBESBGRW06    1091860660 S01231686W048290603         -0012800037000056148 IBE  0000                                 ,S,Simulation application continuation,SSAMP SBBESBGRW06    2S                            04545Y        T00045                                                    
S,SAM,P,G,SBBE,RW20,06004,2050,S01222663,W048283269,,00048,0000,50,148,,,SSAMP SBBESBGRW20    1060042050 S01222663W048283269         -0009400048000050148      0000                                 ,S,Simulation application continuation,SSAMP SBBESBGRW20    2S                            18491Y        L00048                                                    
S,SAM,P,G,SBBE,RW24,09186,2460,S01221290,W048280148,,00052,0000,50,148,,,SSAMP SBBESBGRW24    1091862460 S01221290W048280148         -0008200052000050148      0000                                 ,S,Simulation application continuation,SSAMP SBBESBGRW24    2S                            22545Y        L00052                                                    
S,SAM,P,G,SKUA,RW03,04462,0340,N05313875,W068403906,+0220,00324,0000,50,092,,,SSAMP SKUASKGRW03    1044620340 N05313875W068403906+0220          00324000050092      0000                                 ,S,Simulation application continuation,SSAMP SKUASKGRW03    2S                            02250N        L00324                                                    
S,SAM,P,G,SKUA,RW07,06020,0740,N05310904,W068414656,-0180,00337,0000,50,138,IMDU,,SSAMP SKUASKGRW07    1060200740 N05310904W068414656-0180          00337000050138 IMDU 0000                                 ,S,Simulation application continuation,SSAMP SKUASKGRW07    2S                            06250N        L00337                                                    
S,SAM,P,G,SKUA,RW25,06020,2540,N05313571,W068405322,+0180,00326,0000,50,138,,,SSAMP SKUASKGRW25    1060202540 N05313571W068405322+0180          00326000050138      0000                                 ,S,Simulation application continuation,SSAMP SKUASKGRW25    2S                            24250N        L00326                                                    
S,SAM,P,G,SNLN,RW05,06102,0510,S19214596,W040043129,,00138,0000,50,148,,,SSAMP SNLNSBGRW05    1061020510 S19214596W040043129               00138000050148      0000                                 ,S,Simulation application continuation,SSAMP SNLNSBGRW05    2S                            02700N        L00138                                                    
S,SAM,P,G,SNLN,RW23,06102,2310,S19205212,W040040225,,00132,0000,50,148,,,SSAMP SNLNSBGRW23    1061022310 S19205212W040040225               00132000050148      0000                                 ,S,Simulation application continuation,SSAMP SNLNSBGRW23    2S                            20700N        L00132                                                    
S,SPA,P,G,NWWC,RW09,01969,0960,S19431137,E163393125,,00270,0098,40,066,,,SSPAP NWWCNWGRW09    1019690960 S19431137E163393125               00270009840066      0000                                 ,S,Simulation application continuation,SSPAP NWWCNWGRW09    2S                            10700Y        L00270                                                    
S,SPA,P,G,NWWC,RW27,01969,2760,S19431649,E163394899,,00303,0098,40,066,,,SSPAP NWWCNWGRW27    1019692760 S19431649E163394899               00303009840066      0000                                 ,S,Simulation application continuation,SSPAP NWWCNWGRW27    2S                            28700Y        L00303                                                    
S,SPA,P,G,YCNK,RW17,03599,1764,S32464776,E151202759,,00197,0000,50,075,,,SSPAP YCNKYMGRW17    1035991764 S32464776E151202759               00197000050075      0000                                 ,S,Simulation application continuation,SSPAP YCNKYMGRW17    2S                            18848Y        L00197                                                    
S,SPA,P,G,YCNK,RW35,03599,3564,S32472300,E151202137,,00210,0000,50,075,,,SSPAP YCNKYMGRW35    1035993564 S32472300E151202137               00210000050075      0000                                 ,S,Simulation application continuation,SSPAP YCNKYMGRW35    2S                            00848Y        L00210                                                    
S,SPA,P,G,YSII,RW12,02461,1266,S09223538,E142372260,+0000,00009,0164,40,059,,,SSPAP YSIIYMGRW12    1024611266 S09223538E142372260+0000          00009016440059      0000                                 ,S,Simulation application continuation,SSPAP YSIIYMGRW12    2S                            13187Y        L00009                                                    
S,SPA,P,G,YSII,RW30,02461,3066,S09224993,E142373896,+0000,00008,0098,40,059,,,SSPAP YSIIYMGRW30    1024613066 S09224993E142373896+0000          00008009840059      0000                                 ,S,Simulation application continuation,SSPAP YSIIYMGRW30    2S                            31186Y        L00008                                                    
S,USA,P,G,06FA,RW09,07003,0949,N26542935,W080201831,,00028,0241,54,150,ISYK,,SUSAP 06FAK7GRW09    1070030949 N26542935W080201831               00028024154150 ISYK 0000                                 ,S,Simulation application continuation,SUSAP 06FAK7GRW09    2S                            08999N        T00028                                                    
S,USA,P,G,06FA,RW27,07003,2750,N26542936,W080190627,,00028,0241,50,150,,,SUSAP 06FAK7GRW27    1070032750 N26542936W080190627               00028024150150      0000                                 ,S,Simulation application continuation,SUSAP 06FAK7GRW27    2S                            27000N        T00028                                                    
S,USA,P,G,0J0,RW17,02900,1731,N31361499,W085142020,,00463,0000,40,080,,,SUSAP 0J0 K7GRW17    1029001731 N31361499W085142020               00463000040080      0000                                 ,S,Simulation application continuation,SUSAP 0J0 K7GRW17    2S                            17215N        T00463                                                    
S,USA,P,G,0J0,RW35,02900,3531,N31354656,W085141562,,00463,0000,40,080,,,SUSAP 0J0 K7GRW35    1029003531 N31354656W085141562               00463000040080      0000                                 ,S,Simulation application continuation,SUSAP 0J0 K7GRW35    2S                            35215N        T00463                                                    
S,USA,P,G,0S5,RW15,02495,1512,N46142449,W116142049,,03202,0629,40,030,,,SUSAP 0S5 K1GRW15    1024951512 N46142449W116142049               03202062940030      0000                                 ,S,Simulation application continuation,SUSAP 0S5 K1GRW15    2S                            16924N        L03202                                                    
S,USA,P,G,0S5,RW33,02495,3312,N46141199,W116141705,,03203,0577,40,030,,,SUSAP 0S5 K1GRW33    1024953312 N46141199W116141705               03203057740030      0000                                 ,S,Simulation application continuation,SUSAP 0S5 K1GRW33    2S                            34924N        L03203                                                    
S,USA,P,G,14J,RW01,03050,0163,N31242157,W086052995,,00254,0000,50,075,,,SUSAP 14J K7GRW01    1030500163 N31242157W086052995               00254000050075      0000                                 ,S,Simulation application continuation,SUSAP 14J K7GRW01    2S                            01539N        T00258                                                    
S,USA,P,G,14J,RW19,03050,1963,N31245067,W086052061,,00251,0000,50,075,,,SUSAP 14J K7GRW19    1030501963 N31245067W086052061               00251000050075      0000                                 ,S,Simulation application continuation,SUSAP 14J K7GRW19    2S                            19539N        T00258                                                    
S,USA,P,G,48Y,RW15,03297,1468,N49001065,W095590718,,01082,0000,40,075,,,SUSAP 48Y K3GRW15    1032971468 N49001065W095590718               01082000040075      0000                                 ,S,Simulation application continuation,SUSAP 48Y K3GRW15    2S                            15183N        T01082                                                    
S,USA,P,G,48Y,RW33,03297,3268,N48594197,W095584384,,01067,0000,40,075,,,SUSAP 48Y K3GRW33    1032973268 N48594197W095584384               01067000040075      0000                                 ,S,Simulation application continuation,SUSAP 48Y K3GRW33    2S                            33183N        T01081                                                    
S,USA,P,G,77F,RW17,03204,1723,N31570575,W099590894,,01866,0000,40,050,,,SUSAP 77F K4GRW17    1032041723 N31570575W099590894         +0543001866000040050      0000                                 ,S,Simulation application continuation,SUSAP 77F K4GRW17    2S                            18039N        T01870                                                    
S,USA,P,G,77F,RW35,03204,3523,N31563405,W099590919,,01871,0000,40,050,,,SUSAP 77F K4GRW35    1032043523 N31563405W099590919         +0544701871000040050      0000                                 ,S,Simulation application continuation,SUSAP 77F K4GRW35    2S                            00039N        T01871                                                    
S,USA,P,G,80F,RW17,04001,1748,N34115663,W095385959,,00575,0000,50,060,,,SUSAP 80F K4GRW17    1040011748 N34115663W095385959               00575000050060      0000                                 ,S,Simulation application continuation,SUSAP 80F K4GRW17    2S                            17982N        T00577                                                    
S,USA,P,G,80F,RW35,04001,3548,N34111706,W095385943,,00570,0000,40,060,,,SUSAP 80F K4GRW35    1040013548 N34111706W095385943         +0143900570000040060      0000                                 ,S,Simulation application continuation,SUSAP 80F K4GRW35    2S                            35982N        T00576                                                    
S,USA,P,G,89TS,RW18,05197,1837,N31342622,W095455596,,00215,0000,50,075,,,SUSAP 89TSK4GRW18    1051971837 N31342622W095455596               00215000050075      0000                                 ,S,Simulation application continuation,SUSAP 89TSK4GRW18    2S                            18776N        T00215                                                    
S,USA,P,G,89TS,RW36,05197,0037,N31333526,W095460407,,00209,0000,50,075,,,SUSAP 89TSK4GRW36    1051970037 N31333526W095460407               00209000050075      0000                                 ,S,Simulation application continuation,SUSAP 89TSK4GRW36    2S                            00776N        T00213                                                    
S,USA,P,G,8A0,RW05,06114,0503,N34132469,W086154791,,01003,0000,42,100,,,SUSAP 8A0 K7GRW05    1061140503 N34132469W086154791         +0276501003000042100      0000                                 ,S,Simulation application continuation,SUSAP 8A0 K7GRW05    2S                            04832N        T01015                                                    
S,USA,P,G,8A0,RW23,06114,2303,N34140490,W086145353,,01032,0000,42,100,,,SUSAP 8A0 K7GRW23    1061142303 N34140490W086145353         +0285501032000042100      0000                                 ,S,Simulation application continuation,SUSAP 8A0 K7GRW23    2S                            22833N        T01032                                                    
S,USA,P,G,I74,RW01,03000,0119,N40074081,W083452006,,01060,0000,40,100,,,SUSAP I74 K5GRW01    1030000119 N40074081W083452006               01060000040100      0000                                 ,S,Simulation application continuation,SUSAP I74 K5GRW01    2S                            00790N        L01060                                                    
S,USA,P,G,I74,RW19,03000,1919,N40081017,W083451475,,01060,0000,40,100,,,SUSAP I74 K5GRW19    1030001919 N40081017W083451475               01060000040100      0000                                 ,S,Simulation application continuation,SUSAP I74 K5GRW19    2S                            18790N        L01060                                                    
S,USA,P,G,K78,RW17,04100,1730,N38543486,W097140904,,01152,0000,50,075,,,SUSAP K78 K3GRW17    1041001730 N38543486W097140904         +0322501152000050075      0000                                 ,S,Simulation application continuation,SUSAP K78 K3GRW17    2S                            18007N        T01153                                                    
S,USA,P,G,K78,RW35,04100,3530,N38535433,W097140910,,01150,0000,45,075,,,SUSAP K78 K3GRW35    1041003530 N38535433W097140910         +0321701150000045075      0000                                 ,S,Simulation application continuation,SUSAP K78 K3GRW35    2S                            00007N        T01151                                                    
S,USA,P,G,KAFF,RW08,02493,0848,N38583364,W104491927,,06528,0000,40,075,,,SUSAP KAFFK2GRW08    1024930848 N38583364W104491927               06528000040075      0000                                 ,S,Simulation application continuation,SUSAP KAFFK2GRW08    2S                            09582N        L06528                                                    
S,USA,P,G,KAFF,RW26,02493,2648,N38583114,W104484786,,06576,0000,40,075,,,SUSAP KAFFK2GRW26    1024932648 N38583114W104484786               06576000040075      0000                                 ,S,Simulation application continuation,SUSAP KAFFK2GRW26    2S                            27583N        L06576                                                    
S,USA,P,G,KASY,RW14,04364,1469,N46014288,W099212234,,02019,0000,40,060,,,SUSAP KASYK3GRW14    1043641469 N46014288W099212234               02019000040060      0000                                 ,S,Simulation application continuation,SUSAP KASYK3GRW14    2S                            15498N        T02030                                                    
S,USA,P,G,KASY,RW32,04364,3269,N46010384,W099205620,,02034,0000,40,060,,,SUSAP KASYK3GRW32    1043643269 N46010384W099205620               02034000040060      0000                                 ,S,Simulation application continuation,SUSAP KASYK3GRW32    2S                            33499N        T02034                                                    
S,USA,P,G,KFBG,RW09,04121,0929,N35075410,W078563198,,00240,0000,50,100,,,SUSAP KFBGK7GRW09    1041210929 N35075410W078563198               00240000050100      0000                                 ,S,Simulation application continuation,SUSAP KFBGK7GRW09    2S                            08593N        T00242                                                    
S,USA,P,G,KFBG,RW27,04121,2729,N35075699,W078554251,,00223,0000,50,100,,,SUSAP KFBGK7GRW27    1041212729 N35075699W078554251               00223000050100      0000                                 ,S,Simulation application continuation,SUSAP KFBGK7GRW27    2S                            26594N        T00242                                                    
S,USA,P,G,KGAD,RW18,04806,1832,N33585674,W086050934,,00542,0000,40,100,,,SUSAP KGADK7GRW18    1048061832 N33585674W086050934         +0136200542000040100      0000                                 ,S,Simulation application continuation,SUSAP KGADK7GRW18    2S                            18025N        T00553                                                    
S,USA,P,G,KGAD,RW36,04806,0032,N33580920,W086050959,,00553,0000,40,100,,,SUSAP KGADK7GRW36    1048060032 N33580920W086050959         +0139600553000040100      0000                                 ,S,Simulation application continuation,SUSAP KGADK7GRW36    2S                            00025N        T00555                                                    
S,USA,P,G,KHAO,RW11,05500,1153,N39215900,W084315182,,00632,0000,40,100,,,SUSAP KHAOK5GRW11    1055001153 N39215900W084315182         +0158900632000040100      0000                                 ,S,Simulation application continuation,SUSAP KHAOK5GRW11    2S                            11037N        T00632                                                    
S,USA,P,G,KHAO,RW29,05500,2953,N39214007,W084304618,,00619,0000,46,100,IRQF,,SUSAP KHAOK5GRW29    1055002953 N39214007W084304618         +0155000619000046100 IRQF 0000                                 ,S,Simulation application continuation,SUSAP KHAOK5GRW29    2S                            29038N        T00619                                                    
S,USA,P,G,KMDW,RW13C,06522,1375,N41472651,W087453542,,00608,0463,46,150,IMDW,,SUSAP KMDWK5GRW13C   1065221375 N41472651W087453542         +0151900608046346150 IMDW 0000                                 ,S,Simulation application continuation,SUSAP KMDWK5GRW13C   2S                            13355N        T00611                                                    
S,USA,P,G,KMDW,RW31C,06522,3175,N41465000,W087444412,,00612,0696,48,150,IMXT,,SUSAP KMDWK5GRW31C   1065223175 N41465000W087444412         +0153100612069648150 IMXT 0000                                 ,S,Simulation application continuation,SUSAP KMDWK5GRW31C   2S                            31356N        T00613                                                    
S,USA,P,G,KSSF,RW09,05000,0945,N29201780,W098284642,,00577,0450,50,100,,,SUSAP KSSFK4GRW09    1050000945 N29201780W098284642               00577045050100      0000                                 ,S,Simulation application continuation,SUSAP KSSFK4GRW09    2S                            10253N        T00577                                                    
S,USA,P,G,KSSF,RW27,05000,2745,N29200803,W098275623,,00565,0000,50,100,,,SUSAP KSSFK4GRW27    1050002745 N29200803W098275623               00565000050100      0000                                 ,S,Simulation application continuation,SUSAP KSSFK4GRW27    2S                            28253N        T00570                                                    
S,USA,P,G,KVAD,RW18L,09300,1834,N30585459,W083112691,-0300,00233,0000,49,150,IVAD,,SUSAP KVADK7GRW18L   1093001834 N30585459W083112691-0300          00233000049150 IVAD 0000                                 ,S,Simulation application continuation,SUSAP KVADK7GRW18L   2S                            18048Y        T00233                                                    
S,USA,P,G,KVAD,RW18R,08002,1834,N30584547,W083114280,-0100,00231,0000,49,150,,,SUSAP KVADK7GRW18R   1080021834 N30584547W083114280-0100    +0041600231000049150      0000                                 ,S,Simulation application continuation,SUSAP KVADK7GRW18R   2S                            18047Y        T00231                                                    
S,USA,P,G,KVAD,RW36L,08002,0034,N30572628,W083114355,+0100,00221,0000,59,150,,,SUSAP KVADK7GRW36L   1080020034 N30572628W083114355+0100    +0038500221000059150      0000                                 ,S,Simulation application continuation,SUSAP KVADK7GRW36L   2S                            00047Y        T00225                                                    
S,USA,P,G,KVAD,RW36R,09300,0034,N30572255,W083112781,+0300,00206,0000,55,150,IMDG,,SUSAP KVADK7GRW36R   1093000034 N30572255W083112781+0300          00206000055150 IMDG 0000                                 ,S,Simulation application continuation,SUSAP KVADK7GRW36R   2S                            00048Y        T00217                                                    
S,USA,P,G,L54,RW11,02500,1042,N32572638,W116175392,,01220,0000,40,060,,,SUSAP L54 K2GRW11    1025001042 N32572638W116175392               01220000040060      0000                                 ,S,Simulation application continuation,SUSAP L54 K2GRW11    2S                            11822N        A01220                                                    
S,USA,P,G,L54,RW29,02500,2842,N32571468,W116172806,,01220,0000,40,060,,,SUSAP L54 K2GRW29    1025002842 N32571468W116172806               01220000040060      0000                                 ,S,Simulation application continuation,SUSAP L54 K2GRW29    2S                            29822N        A01220                                                    
S,USA,P,G,O81,RW11,03577,1111,N41533750,W121215669,,04040,0000,50,044,,,SUSAP O81 K2GRW11    1035771111 N41533750W121215669               04040000050044      0000                                 ,S,Simulation application continuation,SUSAP O81 K2GRW11    2S                            12919N        L04040                                                    
S,USA,P,G,O81,RW29,03577,2912,N41531516,W121212003,,04044,0000,50,044,,,SUSAP O81 K2GRW29    1035772912 N41531516W121212003               04044000050044      0000                                 ,S,Simulation application continuation,SUSAP O81 K2GRW29    2S                            30920N        A04044                                                    
S,USA,P,G,U01,RW03,04900,0364,N42473529,W112495640,,04413,0000,50,050,,,SUSAP U01 K1GRW03    1049000364 N42473529W112495640               04413000050050      0000                                 ,S,Simulation application continuation,SUSAP U01 K1GRW03    2S                            05160N        T04419                                                    
S,USA,P,G,U01,RW21,04900,2164,N42480537,W112490493,,04413,0000,50,050,,,SUSAP U01 K1GRW21    1049002164 N42480537W112490493               04413000050050      0000                                 ,S,Simulation application continuation,SUSAP U01 K1GRW21    2S                            23160N        T04419                                                    
S,USA,P,G,U42,RW16,05862,1584,N40373907,W111593940,,04603,0000,40,100,,,SUSAP U42 K2GRW16    1058621584 N40373907W111593940               04603000040100      0000                                 ,S,Simulation application continuation,SUSAP U42 K2GRW16    2S                            17244N        T04607                                                    
S,USA,P,G,U42,RW34,05862,3384,N40364166,W111592940,,04602,0000,58,100,,,SUSAP U42 K2GRW34    1058623384 N40364166W111592940         +1385404602000058100      0000                                 ,S,Simulation application continuation,SUSAP U42 K2GRW34    2S                            35244N        T04606                                                    
